<?xml version="1.0" encoding="UTF-8"?>
<gpx version="1.1" creator="https://www.komoot.de" schemaLocation="http://www.topografix.com/GPX/1/1 http://www.topografix.com/GPX/1/1/gpx.xsd" xmlns="http://www.topografix.com/GPX/1/1" xmlns:xsi="http://www.w3.org/2001/XMLSchema-instance" xsi:schemaLocation="http://www.topografix.com/GPX/1/1 http://www.topografix.com/GPX/1/1/gpx.xsd http://www.garmin.com/xmlschemas/GpxExtensions/v3 http://www.garmin.com/xmlschemas/GpxExtensionsv3.xsd http://www.garmin.com/xmlschemas/TrackPointExtension/v1 http://www.garmin.com/xmlschemas/TrackPointExtensionv1.xsd http://www.garmin.com/xmlschemas/PowerExtension/v1 http://www.garmin.com/xmlschemas/PowerExtensionv1.xsd http://www.topografix.com/GPX/gpx_style/0/2 http://www.topografix.com/GPX/gpx_style/0/2/gpx_style.xsd" xmlns:gpxtpx="http://www.garmin.com/xmlschemas/TrackPointExtension/v1" xmlns:gpxx="http://www.garmin.com/xmlschemas/GpxExtensions/v3" xmlns:gpxpx="http://www.garmin.com/xmlschemas/PowerExtension/v1" xmlns:gpx_style="http://www.topografix.com/GPX/gpx_style/0/2">
  <metadata>
    <name>Hike</name>
    <author>
      <name>gpx.studio</name>
      <link href="https://gpx.studio"/>
    </author>
  </metadata>
  <trk>
    <name>Hike</name>
    <type>hike</type>
    <trkseg>
      <trkpt lat="51.316711" lon="-1.337506">
        <ele>128.607513</ele>
        <time>2025-12-28T12:28:15.000Z</time>
      </trkpt>
      <trkpt lat="51.316692" lon="-1.337526">
        <ele>128.607513</ele>
        <time>2025-12-28T12:28:21.000Z</time>
      </trkpt>
      <trkpt lat="51.316534" lon="-1.337257">
        <ele>128.607513</ele>
        <time>2025-12-28T12:28:42.000Z</time>
      </trkpt>
      <trkpt lat="51.316502" lon="-1.337235">
        <ele>128.607513</ele>
        <time>2025-12-28T12:28:45.000Z</time>
      </trkpt>
      <trkpt lat="51.316458" lon="-1.337156">
        <ele>128.607513</ele>
        <time>2025-12-28T12:28:51.000Z</time>
      </trkpt>
      <trkpt lat="51.316472" lon="-1.337104">
        <ele>128.607513</ele>
        <time>2025-12-28T12:28:55.000Z</time>
      </trkpt>
      <trkpt lat="51.316348" lon="-1.337067">
        <ele>128.607513</ele>
        <time>2025-12-28T12:29:05.000Z</time>
      </trkpt>
      <trkpt lat="51.316309" lon="-1.336995">
        <ele>128.607513</ele>
        <time>2025-12-28T12:29:08.000Z</time>
      </trkpt>
      <trkpt lat="51.316244" lon="-1.336671">
        <ele>128.607513</ele>
        <time>2025-12-28T12:29:19.000Z</time>
      </trkpt>
      <trkpt lat="51.316185" lon="-1.336561">
        <ele>128.607513</ele>
        <time>2025-12-28T12:29:25.000Z</time>
      </trkpt>
      <trkpt lat="51.316121" lon="-1.336585">
        <ele>129.634758</ele>
        <time>2025-12-28T12:29:31.000Z</time>
      </trkpt>
      <trkpt lat="51.316071" lon="-1.336567">
        <ele>130.64876</ele>
        <time>2025-12-28T12:29:36.000Z</time>
      </trkpt>
      <trkpt lat="51.316022" lon="-1.33661">
        <ele>131.7543</ele>
        <time>2025-12-28T12:29:41.000Z</time>
      </trkpt>
      <trkpt lat="51.315732" lon="-1.336672">
        <ele>137.556048</ele>
        <time>2025-12-28T12:30:00.000Z</time>
      </trkpt>
      <trkpt lat="51.315602" lon="-1.33683">
        <ele>140.793143</ele>
        <time>2025-12-28T12:30:13.000Z</time>
      </trkpt>
      <trkpt lat="51.315606" lon="-1.336858">
        <ele>141.14971</ele>
        <time>2025-12-28T12:30:16.000Z</time>
      </trkpt>
      <trkpt lat="51.315543" lon="-1.336832">
        <ele>142.468693</ele>
        <time>2025-12-28T12:30:25.000Z</time>
      </trkpt>
      <trkpt lat="51.315454" lon="-1.336894">
        <ele>144.416479</ele>
        <time>2025-12-28T12:30:36.000Z</time>
      </trkpt>
      <trkpt lat="51.3153" lon="-1.33709">
        <ele>148.321675</ele>
        <time>2025-12-28T12:30:51.000Z</time>
      </trkpt>
      <trkpt lat="51.315269" lon="-1.337147">
        <ele>149.255888</ele>
        <time>2025-12-28T12:30:55.000Z</time>
      </trkpt>
      <trkpt lat="51.315273" lon="-1.337205">
        <ele>150.030179</ele>
        <time>2025-12-28T12:30:58.000Z</time>
      </trkpt>
      <trkpt lat="51.315222" lon="-1.33726">
        <ele>151.249147</ele>
        <time>2025-12-28T12:31:04.000Z</time>
      </trkpt>
      <trkpt lat="51.315189" lon="-1.337351">
        <ele>152.550074</ele>
        <time>2025-12-28T12:31:12.000Z</time>
      </trkpt>
      <trkpt lat="51.315137" lon="-1.337429">
        <ele>153.960123</ele>
        <time>2025-12-28T12:31:19.000Z</time>
      </trkpt>
      <trkpt lat="51.315018" lon="-1.337524">
        <ele>156.593519</ele>
        <time>2025-12-28T12:31:32.000Z</time>
      </trkpt>
      <trkpt lat="51.314951" lon="-1.337611">
        <ele>158.305497</ele>
        <time>2025-12-28T12:31:41.000Z</time>
      </trkpt>
      <trkpt lat="51.314839" lon="-1.337854">
        <ele>162.06458</ele>
        <time>2025-12-28T12:31:59.000Z</time>
      </trkpt>
      <trkpt lat="51.314805" lon="-1.337973">
        <ele>163.727533</ele>
        <time>2025-12-28T12:32:08.000Z</time>
      </trkpt>
      <trkpt lat="51.314743" lon="-1.338046">
        <ele>165.534052</ele>
        <time>2025-12-28T12:32:14.000Z</time>
      </trkpt>
      <trkpt lat="51.314749" lon="-1.338117">
        <ele>166.68798</ele>
        <time>2025-12-28T12:32:19.000Z</time>
      </trkpt>
      <trkpt lat="51.314595" lon="-1.33825">
        <ele>171.134406</ele>
        <time>2025-12-28T12:32:37.000Z</time>
      </trkpt>
      <trkpt lat="51.314517" lon="-1.338347">
        <ele>173.641222</ele>
        <time>2025-12-28T12:32:49.000Z</time>
      </trkpt>
      <trkpt lat="51.31447" lon="-1.338508">
        <ele>176.430594</ele>
        <time>2025-12-28T12:33:00.000Z</time>
      </trkpt>
      <trkpt lat="51.314437" lon="-1.338542">
        <ele>177.414403</ele>
        <time>2025-12-28T12:33:03.000Z</time>
      </trkpt>
      <trkpt lat="51.31442" lon="-1.338599">
        <ele>178.403848</ele>
        <time>2025-12-28T12:33:07.000Z</time>
      </trkpt>
      <trkpt lat="51.314367" lon="-1.338874">
        <ele>182.926919</ele>
        <time>2025-12-28T12:33:25.000Z</time>
      </trkpt>
      <trkpt lat="51.314272" lon="-1.339014">
        <ele>186.204878</ele>
        <time>2025-12-28T12:33:36.000Z</time>
      </trkpt>
      <trkpt lat="51.314256" lon="-1.339103">
        <ele>187.808046</ele>
        <time>2025-12-28T12:33:44.000Z</time>
      </trkpt>
      <trkpt lat="51.31426" lon="-1.339147">
        <ele>188.509805</ele>
        <time>2025-12-28T12:33:48.000Z</time>
      </trkpt>
      <trkpt lat="51.314163" lon="-1.339215">
        <ele>191.190196</ele>
        <time>2025-12-28T12:33:56.000Z</time>
      </trkpt>
      <trkpt lat="51.31398" lon="-1.339499">
        <ele>197.594273</ele>
        <time>2025-12-28T12:34:21.000Z</time>
      </trkpt>
      <trkpt lat="51.313884" lon="-1.339697">
        <ele>201.526631</ele>
        <time>2025-12-28T12:34:38.000Z</time>
      </trkpt>
      <trkpt lat="51.313709" lon="-1.339992">
        <ele>207.899308</ele>
        <time>2025-12-28T12:35:04.000Z</time>
      </trkpt>
      <trkpt lat="51.313695" lon="-1.340069">
        <ele>209.155653</ele>
        <time>2025-12-28T12:35:11.000Z</time>
      </trkpt>
      <trkpt lat="51.313572" lon="-1.340198">
        <ele>211.981107</ele>
        <time>2025-12-28T12:35:25.000Z</time>
      </trkpt>
      <trkpt lat="51.313543" lon="-1.340266">
        <ele>212.958917</ele>
        <time>2025-12-28T12:35:32.000Z</time>
      </trkpt>
      <trkpt lat="51.3135" lon="-1.340298">
        <ele>213.854423</ele>
        <time>2025-12-28T12:35:38.000Z</time>
      </trkpt>
      <trkpt lat="51.313439" lon="-1.340388">
        <ele>215.422989</ele>
        <time>2025-12-28T12:35:51.000Z</time>
      </trkpt>
      <trkpt lat="51.313335" lon="-1.340576">
        <ele>218.401626</ele>
        <time>2025-12-28T12:36:10.000Z</time>
      </trkpt>
      <trkpt lat="51.313315" lon="-1.340649">
        <ele>219.34237</ele>
        <time>2025-12-28T12:36:16.000Z</time>
      </trkpt>
      <trkpt lat="51.313234" lon="-1.340758">
        <ele>221.3473</ele>
        <time>2025-12-28T12:36:30.000Z</time>
      </trkpt>
      <trkpt lat="51.313177" lon="-1.340943">
        <ele>223.807843</ele>
        <time>2025-12-28T12:36:43.000Z</time>
      </trkpt>
      <trkpt lat="51.31306" lon="-1.341162">
        <ele>227.235152</ele>
        <time>2025-12-28T12:37:01.000Z</time>
      </trkpt>
      <trkpt lat="51.312995" lon="-1.341395">
        <ele>230.247522</ele>
        <time>2025-12-28T12:37:15.000Z</time>
      </trkpt>
      <trkpt lat="51.312968" lon="-1.341531">
        <ele>231.93175</ele>
        <time>2025-12-28T12:37:23.000Z</time>
      </trkpt>
      <trkpt lat="51.312963" lon="-1.341706">
        <ele>233.999431</ele>
        <time>2025-12-28T12:37:33.000Z</time>
      </trkpt>
      <trkpt lat="51.312933" lon="-1.341861">
        <ele>235.914681</ele>
        <time>2025-12-28T12:37:42.000Z</time>
      </trkpt>
      <trkpt lat="51.312922" lon="-1.342053">
        <ele>238.203894</ele>
        <time>2025-12-28T12:37:53.000Z</time>
      </trkpt>
      <trkpt lat="51.31289" lon="-1.342339">
        <ele>241.633754</ele>
        <time>2025-12-28T12:38:14.000Z</time>
      </trkpt>
      <trkpt lat="51.312861" lon="-1.342448">
        <ele>243.031976</ele>
        <time>2025-12-28T12:38:21.000Z</time>
      </trkpt>
      <trkpt lat="51.312862" lon="-1.342527">
        <ele>243.338714</ele>
        <time>2025-12-28T12:38:27.000Z</time>
      </trkpt>
      <trkpt lat="51.312849" lon="-1.342539">
        <ele>243.37939</ele>
        <time>2025-12-28T12:38:33.000Z</time>
      </trkpt>
      <trkpt lat="51.312685" lon="-1.342322">
        <ele>243.95776</ele>
        <time>2025-12-28T12:38:48.000Z</time>
      </trkpt>
      <trkpt lat="51.312621" lon="-1.342282">
        <ele>244.143976</ele>
        <time>2025-12-28T12:38:53.000Z</time>
      </trkpt>
      <trkpt lat="51.312353" lon="-1.342282">
        <ele>244.870305</ele>
        <time>2025-12-28T12:39:11.000Z</time>
      </trkpt>
      <trkpt lat="51.312213" lon="-1.342337">
        <ele>245.261599</ele>
        <time>2025-12-28T12:39:21.000Z</time>
      </trkpt>
      <trkpt lat="51.312055" lon="-1.342424">
        <ele>245.714718</ele>
        <time>2025-12-28T12:39:32.000Z</time>
      </trkpt>
      <trkpt lat="51.311853" lon="-1.342599">
        <ele>246.337543</ele>
        <time>2025-12-28T12:39:47.000Z</time>
      </trkpt>
      <trkpt lat="51.311708" lon="-1.342764">
        <ele>246.819786</ele>
        <time>2025-12-28T12:39:59.000Z</time>
      </trkpt>
      <trkpt lat="51.311534" lon="-1.34302">
        <ele>247.460584</ele>
        <time>2025-12-28T12:40:15.000Z</time>
      </trkpt>
      <trkpt lat="51.311486" lon="-1.343124">
        <ele>247.67959</ele>
        <time>2025-12-28T12:40:21.000Z</time>
      </trkpt>
      <trkpt lat="51.311448" lon="-1.343366">
        <ele>248.103619</ele>
        <time>2025-12-28T12:40:38.000Z</time>
      </trkpt>
      <trkpt lat="51.311459" lon="-1.343496">
        <ele>248.1217</ele>
        <time>2025-12-28T12:40:45.000Z</time>
      </trkpt>
      <trkpt lat="51.311516" lon="-1.343657">
        <ele>248.140918</ele>
        <time>2025-12-28T12:40:53.000Z</time>
      </trkpt>
      <trkpt lat="51.311594" lon="-1.343809">
        <ele>248.161345</ele>
        <time>2025-12-28T12:41:02.000Z</time>
      </trkpt>
      <trkpt lat="51.311781" lon="-1.344076">
        <ele>248.203032</ele>
        <time>2025-12-28T12:41:19.000Z</time>
      </trkpt>
      <trkpt lat="51.312055" lon="-1.344408">
        <ele>248.260251</ele>
        <time>2025-12-28T12:41:43.000Z</time>
      </trkpt>
      <trkpt lat="51.312173" lon="-1.344615">
        <ele>248.289347</ele>
        <time>2025-12-28T12:41:55.000Z</time>
      </trkpt>
      <trkpt lat="51.312291" lon="-1.344906">
        <ele>248.325373</ele>
        <time>2025-12-28T12:42:09.000Z</time>
      </trkpt>
      <trkpt lat="51.312393" lon="-1.345413">
        <ele>248.380865</ele>
        <time>2025-12-28T12:42:31.000Z</time>
      </trkpt>
      <trkpt lat="51.312414" lon="-1.345601">
        <ele>248.4007</ele>
        <time>2025-12-28T12:42:39.000Z</time>
      </trkpt>
      <trkpt lat="51.312348" lon="-1.346154">
        <ele>248.20582</ele>
        <time>2025-12-28T12:43:04.000Z</time>
      </trkpt>
      <trkpt lat="51.312263" lon="-1.346672">
        <ele>247.990695</ele>
        <time>2025-12-28T12:43:27.000Z</time>
      </trkpt>
      <trkpt lat="51.312259" lon="-1.346891">
        <ele>247.902705</ele>
        <time>2025-12-28T12:43:36.000Z</time>
      </trkpt>
      <trkpt lat="51.312319" lon="-1.347065">
        <ele>247.822898</ele>
        <time>2025-12-28T12:43:45.000Z</time>
      </trkpt>
      <trkpt lat="51.312366" lon="-1.347104">
        <ele>247.78888</ele>
        <time>2025-12-28T12:43:49.000Z</time>
      </trkpt>
      <trkpt lat="51.312429" lon="-1.34711">
        <ele>247.748268</ele>
        <time>2025-12-28T12:43:53.000Z</time>
      </trkpt>
      <trkpt lat="51.31267" lon="-1.347019">
        <ele>247.588947</ele>
        <time>2025-12-28T12:44:11.000Z</time>
      </trkpt>
      <trkpt lat="51.312783" lon="-1.346939">
        <ele>247.509383</ele>
        <time>2025-12-28T12:44:19.000Z</time>
      </trkpt>
      <trkpt lat="51.313148" lon="-1.346454">
        <ele>247.630505</ele>
        <time>2025-12-28T12:44:52.000Z</time>
      </trkpt>
      <trkpt lat="51.313358" lon="-1.346097">
        <ele>249.20781</ele>
        <time>2025-12-28T12:45:15.000Z</time>
      </trkpt>
      <trkpt lat="51.313738" lon="-1.345783">
        <ele>251.410912</ele>
        <time>2025-12-28T12:45:46.000Z</time>
      </trkpt>
      <trkpt lat="51.313784" lon="-1.345728">
        <ele>251.706236</ele>
        <time>2025-12-28T12:45:50.000Z</time>
      </trkpt>
      <trkpt lat="51.313815" lon="-1.345624">
        <ele>252.076601</ele>
        <time>2025-12-28T12:45:55.000Z</time>
      </trkpt>
      <trkpt lat="51.313754" lon="-1.345484">
        <ele>252.625165</ele>
        <time>2025-12-28T12:46:03.000Z</time>
      </trkpt>
      <trkpt lat="51.313538" lon="-1.345233">
        <ele>253.99806</ele>
        <time>2025-12-28T12:46:22.000Z</time>
      </trkpt>
      <trkpt lat="51.313332" lon="-1.344908">
        <ele>255.486633</ele>
        <time>2025-12-28T12:46:42.000Z</time>
      </trkpt>
      <trkpt lat="51.313172" lon="-1.344523">
        <ele>256.207574</ele>
        <time>2025-12-28T12:47:03.000Z</time>
      </trkpt>
      <trkpt lat="51.313114" lon="-1.344298">
        <ele>255.72047</ele>
        <time>2025-12-28T12:47:14.000Z</time>
      </trkpt>
      <trkpt lat="51.313021" lon="-1.344112">
        <ele>255.243765</ele>
        <time>2025-12-28T12:47:24.000Z</time>
      </trkpt>
      <trkpt lat="51.312804" lon="-1.343791">
        <ele>254.296643</ele>
        <time>2025-12-28T12:47:49.000Z</time>
      </trkpt>
      <trkpt lat="51.312908" lon="-1.343798">
        <ele>253.959237</ele>
        <time>2025-12-28T12:48:00.000Z</time>
      </trkpt>
      <trkpt lat="51.313009" lon="-1.343774">
        <ele>253.632277</ele>
        <time>2025-12-28T12:48:07.000Z</time>
      </trkpt>
      <trkpt lat="51.313033" lon="-1.343689">
        <ele>253.435896</ele>
        <time>2025-12-28T12:48:12.000Z</time>
      </trkpt>
      <trkpt lat="51.312998" lon="-1.342827">
        <ele>251.705593</ele>
        <time>2025-12-28T12:48:49.000Z</time>
      </trkpt>
      <trkpt lat="51.312945" lon="-1.342674">
        <ele>251.3555</ele>
        <time>2025-12-28T12:48:57.000Z</time>
      </trkpt>
      <trkpt lat="51.31286" lon="-1.342552">
        <ele>250.980292</ele>
        <time>2025-12-28T12:49:30.000Z</time>
      </trkpt>
      <trkpt lat="51.312897" lon="-1.3421">
        <ele>246.20638</ele>
        <time>2025-12-28T12:49:55.000Z</time>
      </trkpt>
      <trkpt lat="51.312923" lon="-1.342028">
        <ele>245.090066</ele>
        <time>2025-12-28T12:49:58.000Z</time>
      </trkpt>
      <trkpt lat="51.312912" lon="-1.34197">
        <ele>244.276361</ele>
        <time>2025-12-28T12:50:00.000Z</time>
      </trkpt>
      <trkpt lat="51.312946" lon="-1.34166">
        <ele>240.035795</ele>
        <time>2025-12-28T12:50:14.000Z</time>
      </trkpt>
      <trkpt lat="51.312977" lon="-1.341582">
        <ele>238.794896</ele>
        <time>2025-12-28T12:50:18.000Z</time>
      </trkpt>
      <trkpt lat="51.312986" lon="-1.341378">
        <ele>236.025951</ele>
        <time>2025-12-28T12:50:27.000Z</time>
      </trkpt>
      <trkpt lat="51.313049" lon="-1.341289">
        <ele>234.215975</ele>
        <time>2025-12-28T12:50:32.000Z</time>
      </trkpt>
      <trkpt lat="51.313053" lon="-1.341199">
        <ele>232.998664</ele>
        <time>2025-12-28T12:50:37.000Z</time>
      </trkpt>
      <trkpt lat="51.313124" lon="-1.341124">
        <ele>231.165518</ele>
        <time>2025-12-28T12:50:42.000Z</time>
      </trkpt>
      <trkpt lat="51.313119" lon="-1.341049">
        <ele>230.152934</ele>
        <time>2025-12-28T12:50:45.000Z</time>
      </trkpt>
      <trkpt lat="51.313215" lon="-1.340895">
        <ele>227.189258</ele>
        <time>2025-12-28T12:50:57.000Z</time>
      </trkpt>
      <trkpt lat="51.313241" lon="-1.340776">
        <ele>225.496905</ele>
        <time>2025-12-28T12:51:04.000Z</time>
      </trkpt>
      <trkpt lat="51.313318" lon="-1.340741">
        <ele>223.691256</ele>
        <time>2025-12-28T12:51:13.000Z</time>
      </trkpt>
      <trkpt lat="51.313405" lon="-1.340509">
        <ele>220.0263</ele>
        <time>2025-12-28T12:51:31.000Z</time>
      </trkpt>
      <trkpt lat="51.313477" lon="-1.340462">
        <ele>218.356129</ele>
        <time>2025-12-28T12:51:38.000Z</time>
      </trkpt>
      <trkpt lat="51.313509" lon="-1.340414">
        <ele>217.400945</ele>
        <time>2025-12-28T12:51:44.000Z</time>
      </trkpt>
      <trkpt lat="51.313534" lon="-1.340307">
        <ele>215.858291</ele>
        <time>2025-12-28T12:51:52.000Z</time>
      </trkpt>
      <trkpt lat="51.313582" lon="-1.340267">
        <ele>214.695244</ele>
        <time>2025-12-28T12:51:59.000Z</time>
      </trkpt>
      <trkpt lat="51.313598" lon="-1.340178">
        <ele>213.451996</ele>
        <time>2025-12-28T12:52:05.000Z</time>
      </trkpt>
      <trkpt lat="51.313661" lon="-1.340129">
        <ele>211.940763</ele>
        <time>2025-12-28T12:52:11.000Z</time>
      </trkpt>
      <trkpt lat="51.313696" lon="-1.340041">
        <ele>210.483202</ele>
        <time>2025-12-28T12:52:17.000Z</time>
      </trkpt>
      <trkpt lat="51.313793" lon="-1.339945">
        <ele>207.925913</ele>
        <time>2025-12-28T12:52:25.000Z</time>
      </trkpt>
      <trkpt lat="51.313796" lon="-1.339851">
        <ele>206.609075</ele>
        <time>2025-12-28T12:52:29.000Z</time>
      </trkpt>
      <trkpt lat="51.313898" lon="-1.339772">
        <ele>204.055687</ele>
        <time>2025-12-28T12:52:38.000Z</time>
      </trkpt>
      <trkpt lat="51.313912" lon="-1.339704">
        <ele>203.055234</ele>
        <time>2025-12-28T12:52:41.000Z</time>
      </trkpt>
      <trkpt lat="51.313906" lon="-1.339637">
        <ele>202.109414</ele>
        <time>2025-12-28T12:52:45.000Z</time>
      </trkpt>
      <trkpt lat="51.313986" lon="-1.339573">
        <ele>200.08132</ele>
        <time>2025-12-28T12:52:52.000Z</time>
      </trkpt>
      <trkpt lat="51.314012" lon="-1.339477">
        <ele>198.597017</ele>
        <time>2025-12-28T12:52:58.000Z</time>
      </trkpt>
      <trkpt lat="51.314073" lon="-1.339423">
        <ele>197.024693</ele>
        <time>2025-12-28T12:53:06.000Z</time>
      </trkpt>
      <trkpt lat="51.31407" lon="-1.339386">
        <ele>196.503324</ele>
        <time>2025-12-28T12:53:08.000Z</time>
      </trkpt>
      <trkpt lat="51.314193" lon="-1.339215">
        <ele>192.820847</ele>
        <time>2025-12-28T12:53:21.000Z</time>
      </trkpt>
      <trkpt lat="51.314247" lon="-1.339087">
        <ele>190.662891</ele>
        <time>2025-12-28T12:53:29.000Z</time>
      </trkpt>
      <trkpt lat="51.3143" lon="-1.338991">
        <ele>188.787644</ele>
        <time>2025-12-28T12:53:37.000Z</time>
      </trkpt>
      <trkpt lat="51.314334" lon="-1.33897">
        <ele>187.972844</ele>
        <time>2025-12-28T12:53:40.000Z</time>
      </trkpt>
      <trkpt lat="51.314384" lon="-1.338809">
        <ele>185.425568</ele>
        <time>2025-12-28T12:53:52.000Z</time>
      </trkpt>
      <trkpt lat="51.314375" lon="-1.338763">
        <ele>184.748034</ele>
        <time>2025-12-28T12:53:58.000Z</time>
      </trkpt>
      <trkpt lat="51.314391" lon="-1.338666">
        <ele>183.346126</ele>
        <time>2025-12-28T12:54:08.000Z</time>
      </trkpt>
      <trkpt lat="51.314531" lon="-1.338319">
        <ele>177.568802</ele>
        <time>2025-12-28T12:54:34.000Z</time>
      </trkpt>
      <trkpt lat="51.314569" lon="-1.338293">
        <ele>176.644826</ele>
        <time>2025-12-28T12:54:40.000Z</time>
      </trkpt>
      <trkpt lat="51.314634" lon="-1.338184">
        <ele>174.520615</ele>
        <time>2025-12-28T12:54:52.000Z</time>
      </trkpt>
      <trkpt lat="51.314648" lon="-1.338205">
        <ele>174.091573</ele>
        <time>2025-12-28T12:55:02.000Z</time>
      </trkpt>
      <trkpt lat="51.314693" lon="-1.338139">
        <ele>172.726763</ele>
        <time>2025-12-28T12:55:09.000Z</time>
      </trkpt>
      <trkpt lat="51.314819" lon="-1.337881">
        <ele>169.293306</ele>
        <time>2025-12-28T12:55:36.000Z</time>
      </trkpt>
      <trkpt lat="51.31491" lon="-1.337717">
        <ele>167.206868</ele>
        <time>2025-12-28T12:56:14.000Z</time>
      </trkpt>
      <trkpt lat="51.315205" lon="-1.337314">
        <ele>161.336408</ele>
        <time>2025-12-28T12:56:59.000Z</time>
      </trkpt>
      <trkpt lat="51.315348" lon="-1.337031">
        <ele>157.920033</ele>
        <time>2025-12-28T12:57:20.000Z</time>
      </trkpt>
      <trkpt lat="51.315489" lon="-1.336892">
        <ele>155.434623</ele>
        <time>2025-12-28T12:57:36.000Z</time>
      </trkpt>
      <trkpt lat="51.315546" lon="-1.336927">
        <ele>154.478682</ele>
        <time>2025-12-28T12:57:43.000Z</time>
      </trkpt>
      <trkpt lat="51.315571" lon="-1.336873">
        <ele>153.834544</ele>
        <time>2025-12-28T12:57:50.000Z</time>
      </trkpt>
      <trkpt lat="51.315728" lon="-1.336757">
        <ele>151.242534</ele>
        <time>2025-12-28T12:58:01.000Z</time>
      </trkpt>
      <trkpt lat="51.315876" lon="-1.336702">
        <ele>148.945996</ele>
        <time>2025-12-28T12:58:12.000Z</time>
      </trkpt>
      <trkpt lat="51.316039" lon="-1.336681">
        <ele>146.494619</ele>
        <time>2025-12-28T12:58:23.000Z</time>
      </trkpt>
      <trkpt lat="51.316132" lon="-1.336637">
        <ele>145.038363</ele>
        <time>2025-12-28T12:58:35.000Z</time>
      </trkpt>
      <trkpt lat="51.316207" lon="-1.33673">
        <ele>145.091165</ele>
        <time>2025-12-28T12:58:42.000Z</time>
      </trkpt>
      <trkpt lat="51.316294" lon="-1.33702">
        <ele>145.385199</ele>
        <time>2025-12-28T12:58:56.000Z</time>
      </trkpt>
      <trkpt lat="51.316385" lon="-1.33709">
        <ele>145.537299</ele>
        <time>2025-12-28T12:59:06.000Z</time>
      </trkpt>
      <trkpt lat="51.316405" lon="-1.337135">
        <ele>145.587741</ele>
        <time>2025-12-28T12:59:11.000Z</time>
      </trkpt>
      <trkpt lat="51.316458" lon="-1.337294">
        <ele>145.753406</ele>
        <time>2025-12-28T12:59:17.000Z</time>
      </trkpt>
      <trkpt lat="51.316701" lon="-1.337833">
        <ele>146.360588</ele>
        <time>2025-12-28T12:59:47.000Z</time>
      </trkpt>
      <trkpt lat="51.316805" lon="-1.33821">
        <ele>146.737085</ele>
        <time>2025-12-28T13:00:04.000Z</time>
      </trkpt>
      <trkpt lat="51.31687" lon="-1.338337">
        <ele>146.887179</ele>
        <time>2025-12-28T13:00:11.000Z</time>
      </trkpt>
      <trkpt lat="51.31694" lon="-1.33844">
        <ele>147.026179</ele>
        <time>2025-12-28T13:00:17.000Z</time>
      </trkpt>
      <trkpt lat="51.317085" lon="-1.338409">
        <ele>147.240537</ele>
        <time>2025-12-28T13:00:27.000Z</time>
      </trkpt>
      <trkpt lat="51.317157" lon="-1.338295">
        <ele>147.390324</ele>
        <time>2025-12-28T13:00:33.000Z</time>
      </trkpt>
      <trkpt lat="51.317205" lon="-1.33817">
        <ele>147.524353</ele>
        <time>2025-12-28T13:00:39.000Z</time>
      </trkpt>
      <trkpt lat="51.317331" lon="-1.337749">
        <ele>147.321497</ele>
        <time>2025-12-28T13:00:57.000Z</time>
      </trkpt>
      <trkpt lat="51.317561" lon="-1.33712">
        <ele>146.828216</ele>
        <time>2025-12-28T13:01:29.000Z</time>
      </trkpt>
      <trkpt lat="51.317612" lon="-1.337013">
        <ele>146.737399</ele>
        <time>2025-12-28T13:01:35.000Z</time>
      </trkpt>
      <trkpt lat="51.317696" lon="-1.336738">
        <ele>146.530737</ele>
        <time>2025-12-28T13:01:47.000Z</time>
      </trkpt>
      <trkpt lat="51.317759" lon="-1.33676">
        <ele>146.458348</ele>
        <time>2025-12-28T13:01:52.000Z</time>
      </trkpt>
      <trkpt lat="51.317842" lon="-1.336846">
        <ele>146.351213</ele>
        <time>2025-12-28T13:01:59.000Z</time>
      </trkpt>
      <trkpt lat="51.317861" lon="-1.336797">
        <ele>146.312296</ele>
        <time>2025-12-28T13:02:02.000Z</time>
      </trkpt>
      <trkpt lat="51.317614" lon="-1.336421">
        <ele>145.942557</ele>
        <time>2025-12-28T13:02:29.000Z</time>
      </trkpt>
      <trkpt lat="51.317587" lon="-1.336277">
        <ele>145.841093</ele>
        <time>2025-12-28T13:02:34.000Z</time>
      </trkpt>
      <trkpt lat="51.317585" lon="-1.335933">
        <ele>145.562351</ele>
        <time>2025-12-28T13:02:49.000Z</time>
      </trkpt>
      <trkpt lat="51.31769" lon="-1.33489">
        <ele>143.974257</ele>
        <time>2025-12-28T13:03:32.000Z</time>
      </trkpt>
      <trkpt lat="51.317706" lon="-1.33449">
        <ele>143.372233</ele>
        <time>2025-12-28T13:03:49.000Z</time>
      </trkpt>
      <trkpt lat="51.31776" lon="-1.334048">
        <ele>142.694952</ele>
        <time>2025-12-28T13:04:09.000Z</time>
      </trkpt>
      <trkpt lat="51.317813" lon="-1.333245">
        <ele>141.480742</ele>
        <time>2025-12-28T13:04:43.000Z</time>
      </trkpt>
      <trkpt lat="51.317872" lon="-1.332648">
        <ele>141.191298</ele>
        <time>2025-12-28T13:05:08.000Z</time>
      </trkpt>
      <trkpt lat="51.317927" lon="-1.332282">
        <ele>141.090932</ele>
        <time>2025-12-28T13:05:25.000Z</time>
      </trkpt>
      <trkpt lat="51.317957" lon="-1.331574">
        <ele>140.901677</ele>
        <time>2025-12-28T13:05:55.000Z</time>
      </trkpt>
      <trkpt lat="51.317993" lon="-1.331379">
        <ele>140.84747</ele>
        <time>2025-12-28T13:06:04.000Z</time>
      </trkpt>
      <trkpt lat="51.318083" lon="-1.330419">
        <ele>140.588378</ele>
        <time>2025-12-28T13:06:46.000Z</time>
      </trkpt>
      <trkpt lat="51.318086" lon="-1.330274">
        <ele>140.555629</ele>
        <time>2025-12-28T13:06:52.000Z</time>
      </trkpt>
      <trkpt lat="51.318105" lon="-1.330221">
        <ele>140.551418</ele>
        <time>2025-12-28T13:06:55.000Z</time>
      </trkpt>
      <trkpt lat="51.318147" lon="-1.329788">
        <ele>140.5212</ele>
        <time>2025-12-28T13:07:15.000Z</time>
      </trkpt>
      <trkpt lat="51.318183" lon="-1.329722">
        <ele>140.515162</ele>
        <time>2025-12-28T13:07:19.000Z</time>
      </trkpt>
      <trkpt lat="51.31823" lon="-1.329547">
        <ele>140.502035</ele>
        <time>2025-12-28T13:07:28.000Z</time>
      </trkpt>
      <trkpt lat="51.31829" lon="-1.329204">
        <ele>140.47745</ele>
        <time>2025-12-28T13:07:45.000Z</time>
      </trkpt>
      <trkpt lat="51.318345" lon="-1.3291">
        <ele>140.467997</ele>
        <time>2025-12-28T13:07:52.000Z</time>
      </trkpt>
      <trkpt lat="51.318354" lon="-1.328999">
        <ele>140.460965</ele>
        <time>2025-12-28T13:07:56.000Z</time>
      </trkpt>
      <trkpt lat="51.318407" lon="-1.328808">
        <ele>140.446541</ele>
        <time>2025-12-28T13:08:06.000Z</time>
      </trkpt>
      <trkpt lat="51.318478" lon="-1.32839">
        <ele>140.416653</ele>
        <time>2025-12-28T13:08:25.000Z</time>
      </trkpt>
      <trkpt lat="51.318496" lon="-1.328064">
        <ele>140.394077</ele>
        <time>2025-12-28T13:08:40.000Z</time>
      </trkpt>
      <trkpt lat="51.31852" lon="-1.327895">
        <ele>140.382132</ele>
        <time>2025-12-28T13:08:47.000Z</time>
      </trkpt>
      <trkpt lat="51.318514" lon="-1.327748">
        <ele>140.371979</ele>
        <time>2025-12-28T13:08:54.000Z</time>
      </trkpt>
      <trkpt lat="51.318488" lon="-1.327611">
        <ele>140.362096</ele>
        <time>2025-12-28T13:09:06.000Z</time>
      </trkpt>
      <trkpt lat="51.318546" lon="-1.327443">
        <ele>140.147468</ele>
        <time>2025-12-28T13:09:16.000Z</time>
      </trkpt>
      <trkpt lat="51.318613" lon="-1.327401">
        <ele>139.987113</ele>
        <time>2025-12-28T13:09:22.000Z</time>
      </trkpt>
      <trkpt lat="51.318975" lon="-1.327534">
        <ele>139.164562</ele>
        <time>2025-12-28T13:09:46.000Z</time>
      </trkpt>
      <trkpt lat="51.319197" lon="-1.327667">
        <ele>138.638373</ele>
        <time>2025-12-28T13:10:03.000Z</time>
      </trkpt>
      <trkpt lat="51.319292" lon="-1.327788">
        <ele>138.36947</ele>
        <time>2025-12-28T13:10:11.000Z</time>
      </trkpt>
      <trkpt lat="51.319545" lon="-1.32823">
        <ele>137.538997</ele>
        <time>2025-12-28T13:10:37.000Z</time>
      </trkpt>
      <trkpt lat="51.319803" lon="-1.328436">
        <ele>136.900314</ele>
        <time>2025-12-28T13:10:56.000Z</time>
      </trkpt>
      <trkpt lat="51.319918" lon="-1.328497">
        <ele>136.632008</ele>
        <time>2025-12-28T13:11:05.000Z</time>
      </trkpt>
      <trkpt lat="51.320071" lon="-1.328536">
        <ele>136.312235</ele>
        <time>2025-12-28T13:11:16.000Z</time>
      </trkpt>
      <trkpt lat="51.320413" lon="-1.328576">
        <ele>135.754292</ele>
        <time>2025-12-28T13:11:41.000Z</time>
      </trkpt>
      <trkpt lat="51.320492" lon="-1.328654">
        <ele>135.602786</ele>
        <time>2025-12-28T13:11:49.000Z</time>
      </trkpt>
      <trkpt lat="51.320621" lon="-1.328736">
        <ele>135.37755</ele>
        <time>2025-12-28T13:12:01.000Z</time>
      </trkpt>
      <trkpt lat="51.320821" lon="-1.328733">
        <ele>135.053108</ele>
        <time>2025-12-28T13:12:14.000Z</time>
      </trkpt>
      <trkpt lat="51.321233" lon="-1.328616">
        <ele>134.373633</ele>
        <time>2025-12-28T13:12:42.000Z</time>
      </trkpt>
      <trkpt lat="51.321474" lon="-1.328722">
        <ele>133.966213</ele>
        <time>2025-12-28T13:12:59.000Z</time>
      </trkpt>
      <trkpt lat="51.321765" lon="-1.32881">
        <ele>133.485563</ele>
        <time>2025-12-28T13:13:19.000Z</time>
      </trkpt>
      <trkpt lat="51.322323" lon="-1.328775">
        <ele>132.336942</ele>
        <time>2025-12-28T13:13:57.000Z</time>
      </trkpt>
      <trkpt lat="51.322584" lon="-1.328724">
        <ele>131.792658</ele>
        <time>2025-12-28T13:14:15.000Z</time>
      </trkpt>
      <trkpt lat="51.322696" lon="-1.328677">
        <ele>131.55299</ele>
        <time>2025-12-28T13:14:23.000Z</time>
      </trkpt>
      <trkpt lat="51.322909" lon="-1.328457">
        <ele>131.027279</ele>
        <time>2025-12-28T13:14:41.000Z</time>
      </trkpt>
      <trkpt lat="51.323061" lon="-1.328253">
        <ele>130.616451</ele>
        <time>2025-12-28T13:14:55.000Z</time>
      </trkpt>
      <trkpt lat="51.323272" lon="-1.327874">
        <ele>129.958706</ele>
        <time>2025-12-28T13:15:17.000Z</time>
      </trkpt>
      <trkpt lat="51.323372" lon="-1.327763">
        <ele>129.670526</ele>
        <time>2025-12-28T13:15:26.000Z</time>
      </trkpt>
      <trkpt lat="51.32343" lon="-1.327728">
        <ele>129.379957</ele>
        <time>2025-12-28T13:15:30.000Z</time>
      </trkpt>
      <trkpt lat="51.323613" lon="-1.327738">
        <ele>128.522059</ele>
        <time>2025-12-28T13:15:42.000Z</time>
      </trkpt>
      <trkpt lat="51.323993" lon="-1.327895">
        <ele>126.683627</ele>
        <time>2025-12-28T13:16:09.000Z</time>
      </trkpt>
      <trkpt lat="51.324957" lon="-1.328229">
        <ele>122.063213</ele>
        <time>2025-12-28T13:17:16.000Z</time>
      </trkpt>
      <trkpt lat="51.325088" lon="-1.328302">
        <ele>121.413698</ele>
        <time>2025-12-28T13:17:25.000Z</time>
      </trkpt>
      <trkpt lat="51.325268" lon="-1.328366">
        <ele>121.127354</ele>
        <time>2025-12-28T13:17:37.000Z</time>
      </trkpt>
      <trkpt lat="51.325875" lon="-1.328546">
        <ele>120.421965</ele>
        <time>2025-12-28T13:18:19.000Z</time>
      </trkpt>
      <trkpt lat="51.326128" lon="-1.328592">
        <ele>120.130864</ele>
        <time>2025-12-28T13:18:36.000Z</time>
      </trkpt>
      <trkpt lat="51.326387" lon="-1.328709">
        <ele>119.823412</ele>
        <time>2025-12-28T13:18:55.000Z</time>
      </trkpt>
      <trkpt lat="51.326552" lon="-1.32873">
        <ele>119.63378</ele>
        <time>2025-12-28T13:19:11.000Z</time>
      </trkpt>
      <trkpt lat="51.326626" lon="-1.328775">
        <ele>119.542264</ele>
        <time>2025-12-28T13:19:22.000Z</time>
      </trkpt>
      <trkpt lat="51.326716" lon="-1.328731">
        <ele>119.434472</ele>
        <time>2025-12-28T13:19:29.000Z</time>
      </trkpt>
      <trkpt lat="51.326946" lon="-1.328747">
        <ele>120.255919</ele>
        <time>2025-12-28T13:19:46.000Z</time>
      </trkpt>
      <trkpt lat="51.327238" lon="-1.328689">
        <ele>124.081803</ele>
        <time>2025-12-28T13:20:07.000Z</time>
      </trkpt>
      <trkpt lat="51.327537" lon="-1.328674">
        <ele>127.9789</ele>
        <time>2025-12-28T13:20:31.000Z</time>
      </trkpt>
      <trkpt lat="51.32763" lon="-1.328642">
        <ele>129.217962</ele>
        <time>2025-12-28T13:20:39.000Z</time>
      </trkpt>
      <trkpt lat="51.328068" lon="-1.328625">
        <ele>134.922345</ele>
        <time>2025-12-28T13:21:16.000Z</time>
      </trkpt>
      <trkpt lat="51.328249" lon="-1.328471">
        <ele>137.597496</ele>
        <time>2025-12-28T13:21:33.000Z</time>
      </trkpt>
      <trkpt lat="51.328582" lon="-1.328402">
        <ele>141.98576</ele>
        <time>2025-12-28T13:22:03.000Z</time>
      </trkpt>
      <trkpt lat="51.328909" lon="-1.328413">
        <ele>144.590979</ele>
        <time>2025-12-28T13:22:32.000Z</time>
      </trkpt>
      <trkpt lat="51.329101" lon="-1.328388">
        <ele>145.954818</ele>
        <time>2025-12-28T13:22:46.000Z</time>
      </trkpt>
      <trkpt lat="51.329613" lon="-1.32841">
        <ele>149.570793</ele>
        <time>2025-12-28T13:23:25.000Z</time>
      </trkpt>
      <trkpt lat="51.32986" lon="-1.328367">
        <ele>151.32701</ele>
        <time>2025-12-28T13:23:44.000Z</time>
      </trkpt>
      <trkpt lat="51.330101" lon="-1.328369">
        <ele>153.030056</ele>
        <time>2025-12-28T13:24:01.000Z</time>
      </trkpt>
      <trkpt lat="51.330382" lon="-1.328308">
        <ele>155.034052</ele>
        <time>2025-12-28T13:24:20.000Z</time>
      </trkpt>
      <trkpt lat="51.330581" lon="-1.32835">
        <ele>154.077517</ele>
        <time>2025-12-28T13:24:34.000Z</time>
      </trkpt>
      <trkpt lat="51.330873" lon="-1.328503">
        <ele>151.689812</ele>
        <time>2025-12-28T13:24:55.000Z</time>
      </trkpt>
      <trkpt lat="51.330997" lon="-1.328546">
        <ele>150.704414</ele>
        <time>2025-12-28T13:25:03.000Z</time>
      </trkpt>
      <trkpt lat="51.331203" lon="-1.328718">
        <ele>148.894411</ele>
        <time>2025-12-28T13:25:18.000Z</time>
      </trkpt>
      <trkpt lat="51.331304" lon="-1.328873">
        <ele>147.805255</ele>
        <time>2025-12-28T13:25:27.000Z</time>
      </trkpt>
      <trkpt lat="51.331351" lon="-1.329062">
        <ele>146.818127</ele>
        <time>2025-12-28T13:25:36.000Z</time>
      </trkpt>
      <trkpt lat="51.331449" lon="-1.329806">
        <ele>143.126865</ele>
        <time>2025-12-28T13:26:07.000Z</time>
      </trkpt>
      <trkpt lat="51.331557" lon="-1.330166">
        <ele>141.274726</ele>
        <time>2025-12-28T13:26:23.000Z</time>
      </trkpt>
      <trkpt lat="51.33163" lon="-1.330308">
        <ele>140.851576</ele>
        <time>2025-12-28T13:26:30.000Z</time>
      </trkpt>
      <trkpt lat="51.331836" lon="-1.330538">
        <ele>139.926479</ele>
        <time>2025-12-28T13:26:47.000Z</time>
      </trkpt>
      <trkpt lat="51.332025" lon="-1.330814">
        <ele>138.984202</ele>
        <time>2025-12-28T13:27:04.000Z</time>
      </trkpt>
      <trkpt lat="51.332359" lon="-1.331498">
        <ele>136.986294</ele>
        <time>2025-12-28T13:27:37.000Z</time>
      </trkpt>
      <trkpt lat="51.332489" lon="-1.331664">
        <ele>136.373806</ele>
        <time>2025-12-28T13:27:48.000Z</time>
      </trkpt>
      <trkpt lat="51.332712" lon="-1.331864">
        <ele>135.432002</ele>
        <time>2025-12-28T13:28:04.000Z</time>
      </trkpt>
      <trkpt lat="51.33292" lon="-1.332012">
        <ele>134.625585</ele>
        <time>2025-12-28T13:28:20.000Z</time>
      </trkpt>
      <trkpt lat="51.333381" lon="-1.332278">
        <ele>133.246287</ele>
        <time>2025-12-28T13:28:56.000Z</time>
      </trkpt>
      <trkpt lat="51.33355" lon="-1.332392">
        <ele>132.726622</ele>
        <time>2025-12-28T13:29:09.000Z</time>
      </trkpt>
      <trkpt lat="51.333871" lon="-1.332627">
        <ele>131.732485</ele>
        <time>2025-12-28T13:29:32.000Z</time>
      </trkpt>
      <trkpt lat="51.334235" lon="-1.333014">
        <ele>130.502729</ele>
        <time>2025-12-28T13:30:03.000Z</time>
      </trkpt>
      <trkpt lat="51.3343" lon="-1.333145">
        <ele>130.208114</ele>
        <time>2025-12-28T13:30:10.000Z</time>
      </trkpt>
      <trkpt lat="51.334417" lon="-1.333277">
        <ele>129.804875</ele>
        <time>2025-12-28T13:30:20.000Z</time>
      </trkpt>
      <trkpt lat="51.334553" lon="-1.333513">
        <ele>129.425274</ele>
        <time>2025-12-28T13:30:36.000Z</time>
      </trkpt>
      <trkpt lat="51.334623" lon="-1.333742">
        <ele>129.169729</ele>
        <time>2025-12-28T13:30:47.000Z</time>
      </trkpt>
      <trkpt lat="51.33465" lon="-1.334188">
        <ele>128.72171</ele>
        <time>2025-12-28T13:31:07.000Z</time>
      </trkpt>
      <trkpt lat="51.334661" lon="-1.334274">
        <ele>128.634111</ele>
        <time>2025-12-28T13:31:11.000Z</time>
      </trkpt>
      <trkpt lat="51.334685" lon="-1.334287">
        <ele>128.593642</ele>
        <time>2025-12-28T13:31:14.000Z</time>
      </trkpt>
      <trkpt lat="51.334852" lon="-1.334181">
        <ele>128.305701</ele>
        <time>2025-12-28T13:31:31.000Z</time>
      </trkpt>
      <trkpt lat="51.335012" lon="-1.334177">
        <ele>128.050112</ele>
        <time>2025-12-28T13:31:42.000Z</time>
      </trkpt>
      <trkpt lat="51.335147" lon="-1.334131">
        <ele>127.829577</ele>
        <time>2025-12-28T13:31:51.000Z</time>
      </trkpt>
      <trkpt lat="51.335498" lon="-1.333707">
        <ele>127.126395</ele>
        <time>2025-12-28T13:32:19.000Z</time>
      </trkpt>
      <trkpt lat="51.33591" lon="-1.333292">
        <ele>125.99697</ele>
        <time>2025-12-28T13:32:50.000Z</time>
      </trkpt>
      <trkpt lat="51.336376" lon="-1.332712">
        <ele>124.312764</ele>
        <time>2025-12-28T13:33:27.000Z</time>
      </trkpt>
      <trkpt lat="51.336821" lon="-1.332341">
        <ele>122.88229</ele>
        <time>2025-12-28T13:33:59.000Z</time>
      </trkpt>
      <trkpt lat="51.337155" lon="-1.33212">
        <ele>121.851815</ele>
        <time>2025-12-28T13:34:23.000Z</time>
      </trkpt>
      <trkpt lat="51.337299" lon="-1.332055">
        <ele>121.618883</ele>
        <time>2025-12-28T13:34:33.000Z</time>
      </trkpt>
      <trkpt lat="51.337452" lon="-1.331931">
        <ele>121.519837</ele>
        <time>2025-12-28T13:34:45.000Z</time>
      </trkpt>
      <trkpt lat="51.337589" lon="-1.331866">
        <ele>121.437223</ele>
        <time>2025-12-28T13:34:56.000Z</time>
      </trkpt>
      <trkpt lat="51.33764" lon="-1.3318">
        <ele>121.399122</ele>
        <time>2025-12-28T13:35:04.000Z</time>
      </trkpt>
      <trkpt lat="51.337659" lon="-1.331737">
        <ele>121.373877</ele>
        <time>2025-12-28T13:35:11.000Z</time>
      </trkpt>
      <trkpt lat="51.337665" lon="-1.331599">
        <ele>121.323965</ele>
        <time>2025-12-28T13:35:17.000Z</time>
      </trkpt>
      <trkpt lat="51.337718" lon="-1.331483">
        <ele>121.272111</ele>
        <time>2025-12-28T13:35:23.000Z</time>
      </trkpt>
      <trkpt lat="51.337948" lon="-1.331251">
        <ele>121.114809</ele>
        <time>2025-12-28T13:35:44.000Z</time>
      </trkpt>
      <trkpt lat="51.338007" lon="-1.331154">
        <ele>121.065878</ele>
        <time>2025-12-28T13:35:50.000Z</time>
      </trkpt>
      <trkpt lat="51.338197" lon="-1.330955">
        <ele>120.934649</ele>
        <time>2025-12-28T13:36:11.000Z</time>
      </trkpt>
      <trkpt lat="51.338145" lon="-1.330957">
        <ele>120.904608</ele>
        <time>2025-12-28T13:36:19.000Z</time>
      </trkpt>
      <trkpt lat="51.338071" lon="-1.331039">
        <ele>120.852628</ele>
        <time>2025-12-28T13:36:26.000Z</time>
      </trkpt>
      <trkpt lat="51.337951" lon="-1.331127">
        <ele>120.776396</ele>
        <time>2025-12-28T13:36:35.000Z</time>
      </trkpt>
      <trkpt lat="51.33793" lon="-1.33126">
        <ele>120.726258</ele>
        <time>2025-12-28T13:36:41.000Z</time>
      </trkpt>
      <trkpt lat="51.337953" lon="-1.331425">
        <ele>120.664573</ele>
        <time>2025-12-28T13:36:49.000Z</time>
      </trkpt>
      <trkpt lat="51.337977" lon="-1.331478">
        <ele>120.64079</ele>
        <time>2025-12-28T13:36:53.000Z</time>
      </trkpt>
      <trkpt lat="51.337966" lon="-1.331525">
        <ele>120.673677</ele>
        <time>2025-12-28T13:36:55.000Z</time>
      </trkpt>
      <trkpt lat="51.337975" lon="-1.3316">
        <ele>120.859545</ele>
        <time>2025-12-28T13:36:58.000Z</time>
      </trkpt>
      <trkpt lat="51.338164" lon="-1.33196">
        <ele>122.011553</ele>
        <time>2025-12-28T13:37:23.000Z</time>
      </trkpt>
      <trkpt lat="51.338246" lon="-1.332166">
        <ele>122.611544</ele>
        <time>2025-12-28T13:37:40.000Z</time>
      </trkpt>
      <trkpt lat="51.338233" lon="-1.332186">
        <ele>122.682288</ele>
        <time>2025-12-28T13:37:55.000Z</time>
      </trkpt>
      <trkpt lat="51.338254" lon="-1.332303">
        <ele>122.98475</ele>
        <time>2025-12-28T13:38:15.000Z</time>
      </trkpt>
      <trkpt lat="51.338215" lon="-1.332619">
        <ele>123.772497</ele>
        <time>2025-12-28T13:38:31.000Z</time>
      </trkpt>
      <trkpt lat="51.338285" lon="-1.332971">
        <ele>124.672944</ele>
        <time>2025-12-28T13:38:51.000Z</time>
      </trkpt>
      <trkpt lat="51.338328" lon="-1.33309">
        <ele>125.007516</ele>
        <time>2025-12-28T13:38:57.000Z</time>
      </trkpt>
      <trkpt lat="51.33842" lon="-1.333249">
        <ele>125.535568</ele>
        <time>2025-12-28T13:39:06.000Z</time>
      </trkpt>
      <trkpt lat="51.33861" lon="-1.333455">
        <ele>126.432347</ele>
        <time>2025-12-28T13:39:22.000Z</time>
      </trkpt>
      <trkpt lat="51.338892" lon="-1.33365">
        <ele>127.629526</ele>
        <time>2025-12-28T13:39:43.000Z</time>
      </trkpt>
      <trkpt lat="51.339143" lon="-1.333673">
        <ele>127.970297</ele>
        <time>2025-12-28T13:40:03.000Z</time>
      </trkpt>
      <trkpt lat="51.339155" lon="-1.333713">
        <ele>128.007263</ele>
        <time>2025-12-28T13:40:07.000Z</time>
      </trkpt>
      <trkpt lat="51.339115" lon="-1.334312">
        <ele>128.510394</ele>
        <time>2025-12-28T13:40:38.000Z</time>
      </trkpt>
      <trkpt lat="51.338982" lon="-1.334493">
        <ele>128.744418</ele>
        <time>2025-12-28T13:40:50.000Z</time>
      </trkpt>
      <trkpt lat="51.338965" lon="-1.334544">
        <ele>128.798641</ele>
        <time>2025-12-28T13:41:06.000Z</time>
      </trkpt>
      <trkpt lat="51.339074" lon="-1.334406">
        <ele>128.983974</ele>
        <time>2025-12-28T13:41:16.000Z</time>
      </trkpt>
      <trkpt lat="51.339074" lon="-1.33439">
        <ele>128.997303</ele>
        <time>2025-12-28T13:41:21.000Z</time>
      </trkpt>
      <trkpt lat="51.338925" lon="-1.334583">
        <ele>129.253346</ele>
        <time>2025-12-28T13:41:37.000Z</time>
      </trkpt>
      <trkpt lat="51.338897" lon="-1.334658">
        <ele>129.326132</ele>
        <time>2025-12-28T13:41:43.000Z</time>
      </trkpt>
      <trkpt lat="51.339078" lon="-1.334429">
        <ele>129.635433</ele>
        <time>2025-12-28T13:42:08.000Z</time>
      </trkpt>
      <trkpt lat="51.339309" lon="-1.334067">
        <ele>130.08499</ele>
        <time>2025-12-28T13:42:33.000Z</time>
      </trkpt>
      <trkpt lat="51.339463" lon="-1.334096">
        <ele>130.401688</ele>
        <time>2025-12-28T13:42:46.000Z</time>
      </trkpt>
      <trkpt lat="51.339535" lon="-1.334194">
        <ele>130.595109</ele>
        <time>2025-12-28T13:42:54.000Z</time>
      </trkpt>
      <trkpt lat="51.33967" lon="-1.334366">
        <ele>130.953036</ele>
        <time>2025-12-28T13:43:12.000Z</time>
      </trkpt>
      <trkpt lat="51.339748" lon="-1.33445">
        <ele>131.145408</ele>
        <time>2025-12-28T13:43:19.000Z</time>
      </trkpt>
      <trkpt lat="51.34013" lon="-1.334777">
        <ele>132.031762</ele>
        <time>2025-12-28T13:43:49.000Z</time>
      </trkpt>
      <trkpt lat="51.340345" lon="-1.334994">
        <ele>132.552521</ele>
        <time>2025-12-28T13:44:09.000Z</time>
      </trkpt>
      <trkpt lat="51.340481" lon="-1.335095">
        <ele>132.859542</ele>
        <time>2025-12-28T13:44:18.000Z</time>
      </trkpt>
      <trkpt lat="51.340519" lon="-1.335174">
        <ele>132.986753</ele>
        <time>2025-12-28T13:44:23.000Z</time>
      </trkpt>
      <trkpt lat="51.340609" lon="-1.335284">
        <ele>133.220031</ele>
        <time>2025-12-28T13:44:32.000Z</time>
      </trkpt>
      <trkpt lat="51.340643" lon="-1.335348">
        <ele>133.32722</ele>
        <time>2025-12-28T13:44:39.000Z</time>
      </trkpt>
      <trkpt lat="51.340715" lon="-1.336005">
        <ele>133.601191</ele>
        <time>2025-12-28T13:45:11.000Z</time>
      </trkpt>
      <trkpt lat="51.340766" lon="-1.336172">
        <ele>133.54759</ele>
        <time>2025-12-28T13:45:19.000Z</time>
      </trkpt>
      <trkpt lat="51.340869" lon="-1.336263">
        <ele>133.493286</ele>
        <time>2025-12-28T13:45:27.000Z</time>
      </trkpt>
      <trkpt lat="51.340965" lon="-1.336245">
        <ele>133.44867</ele>
        <time>2025-12-28T13:45:33.000Z</time>
      </trkpt>
      <trkpt lat="51.341359" lon="-1.336264">
        <ele>133.266558</ele>
        <time>2025-12-28T13:45:58.000Z</time>
      </trkpt>
      <trkpt lat="51.341852" lon="-1.335964">
        <ele>133.021072</ele>
        <time>2025-12-28T13:46:42.000Z</time>
      </trkpt>
      <trkpt lat="51.34215" lon="-1.335843">
        <ele>132.878771</ele>
        <time>2025-12-28T13:47:08.000Z</time>
      </trkpt>
      <trkpt lat="51.342395" lon="-1.335779">
        <ele>133.323642</ele>
        <time>2025-12-28T13:47:24.000Z</time>
      </trkpt>
      <trkpt lat="51.342425" lon="-1.335792">
        <ele>133.379771</ele>
        <time>2025-12-28T13:47:26.000Z</time>
      </trkpt>
      <trkpt lat="51.342617" lon="-1.336633">
        <ele>134.391356</ele>
        <time>2025-12-28T13:48:06.000Z</time>
      </trkpt>
      <trkpt lat="51.342652" lon="-1.336883">
        <ele>134.680816</ele>
        <time>2025-12-28T13:48:17.000Z</time>
      </trkpt>
      <trkpt lat="51.342655" lon="-1.337066">
        <ele>134.887509</ele>
        <time>2025-12-28T13:48:25.000Z</time>
      </trkpt>
      <trkpt lat="51.342838" lon="-1.337957">
        <ele>135.945879</ele>
        <time>2025-12-28T13:49:03.000Z</time>
      </trkpt>
      <trkpt lat="51.342851" lon="-1.338104">
        <ele>136.113367</ele>
        <time>2025-12-28T13:49:09.000Z</time>
      </trkpt>
      <trkpt lat="51.3429" lon="-1.338296">
        <ele>136.31517</ele>
        <time>2025-12-28T13:49:17.000Z</time>
      </trkpt>
      <trkpt lat="51.34299" lon="-1.338475">
        <ele>136.536643</ele>
        <time>2025-12-28T13:49:27.000Z</time>
      </trkpt>
      <trkpt lat="51.343108" lon="-1.338524">
        <ele>136.724741</ele>
        <time>2025-12-28T13:49:36.000Z</time>
      </trkpt>
      <trkpt lat="51.343378" lon="-1.338161">
        <ele>137.269218</ele>
        <time>2025-12-28T13:49:59.000Z</time>
      </trkpt>
      <trkpt lat="51.343778" lon="-1.337713">
        <ele>138.02384</ele>
        <time>2025-12-28T13:50:31.000Z</time>
      </trkpt>
      <trkpt lat="51.343883" lon="-1.337538">
        <ele>138.257716</ele>
        <time>2025-12-28T13:50:41.000Z</time>
      </trkpt>
      <trkpt lat="51.34395" lon="-1.337383">
        <ele>138.43939</ele>
        <time>2025-12-28T13:50:49.000Z</time>
      </trkpt>
      <trkpt lat="51.343999" lon="-1.337173">
        <ele>138.655452</ele>
        <time>2025-12-28T13:50:58.000Z</time>
      </trkpt>
      <trkpt lat="51.344017" lon="-1.336862">
        <ele>138.845818</ele>
        <time>2025-12-28T13:51:13.000Z</time>
      </trkpt>
      <trkpt lat="51.343875" lon="-1.336843">
        <ele>138.622054</ele>
        <time>2025-12-28T14:07:40.000Z</time>
      </trkpt>
      <trkpt lat="51.343945" lon="-1.336847">
        <ele>138.51314</ele>
        <time>2025-12-28T14:07:45.000Z</time>
      </trkpt>
      <trkpt lat="51.344018" lon="-1.336614">
        <ele>138.258567</ele>
        <time>2025-12-28T14:07:55.000Z</time>
      </trkpt>
      <trkpt lat="51.34408" lon="-1.335988">
        <ele>137.642699</ele>
        <time>2025-12-28T14:08:19.000Z</time>
      </trkpt>
      <trkpt lat="51.344066" lon="-1.335876">
        <ele>137.531813</ele>
        <time>2025-12-28T14:08:23.000Z</time>
      </trkpt>
      <trkpt lat="51.344116" lon="-1.335749">
        <ele>137.38326</ele>
        <time>2025-12-28T14:08:30.000Z</time>
      </trkpt>
      <trkpt lat="51.34414" lon="-1.335587">
        <ele>137.219976</ele>
        <time>2025-12-28T14:08:37.000Z</time>
      </trkpt>
      <trkpt lat="51.337013" lon="-1.327691">
        <ele>123.642459</ele>
        <time>2025-12-28T14:19:09.000Z</time>
      </trkpt>
      <trkpt lat="51.336861" lon="-1.327554">
        <ele>123.23683</ele>
        <time>2025-12-28T14:19:29.000Z</time>
      </trkpt>
      <trkpt lat="51.336594" lon="-1.32725">
        <ele>122.48953</ele>
        <time>2025-12-28T14:19:49.000Z</time>
      </trkpt>
      <trkpt lat="51.336513" lon="-1.327136">
        <ele>122.24453</ele>
        <time>2025-12-28T14:19:56.000Z</time>
      </trkpt>
      <trkpt lat="51.33615" lon="-1.326789">
        <ele>121.282969</ele>
        <time>2025-12-28T14:20:21.000Z</time>
      </trkpt>
      <trkpt lat="51.336037" lon="-1.326655">
        <ele>121.163545</ele>
        <time>2025-12-28T14:20:30.000Z</time>
      </trkpt>
      <trkpt lat="51.335877" lon="-1.326525">
        <ele>121.017974</ele>
        <time>2025-12-28T14:20:39.000Z</time>
      </trkpt>
      <trkpt lat="51.335654" lon="-1.326265">
        <ele>120.793993</ele>
        <time>2025-12-28T14:20:57.000Z</time>
      </trkpt>
      <trkpt lat="51.33545" lon="-1.326107">
        <ele>120.609891</ele>
        <time>2025-12-28T14:21:11.000Z</time>
      </trkpt>
      <trkpt lat="51.33511" lon="-1.325741">
        <ele>120.277419</ele>
        <time>2025-12-28T14:21:34.000Z</time>
      </trkpt>
      <trkpt lat="51.334941" lon="-1.325599">
        <ele>120.122527</ele>
        <time>2025-12-28T14:21:47.000Z</time>
      </trkpt>
      <trkpt lat="51.334651" lon="-1.325249">
        <ele>119.827698</ele>
        <time>2025-12-28T14:22:11.000Z</time>
      </trkpt>
      <trkpt lat="51.334357" lon="-1.324976">
        <ele>119.016047</ele>
        <time>2025-12-28T14:22:34.000Z</time>
      </trkpt>
      <trkpt lat="51.334221" lon="-1.324797">
        <ele>118.583642</ele>
        <time>2025-12-28T14:22:44.000Z</time>
      </trkpt>
      <trkpt lat="51.333951" lon="-1.324576">
        <ele>117.838561</ele>
        <time>2025-12-28T14:23:01.000Z</time>
      </trkpt>
      <trkpt lat="51.333143" lon="-1.323771">
        <ele>115.497999</ele>
        <time>2025-12-28T14:24:05.000Z</time>
      </trkpt>
      <trkpt lat="51.333067" lon="-1.32365">
        <ele>115.348262</ele>
        <time>2025-12-28T14:24:12.000Z</time>
      </trkpt>
      <trkpt lat="51.33289" lon="-1.323437">
        <ele>115.180888</ele>
        <time>2025-12-28T14:24:33.000Z</time>
      </trkpt>
      <trkpt lat="51.332729" lon="-1.323325">
        <ele>115.04852</ele>
        <time>2025-12-28T14:24:47.000Z</time>
      </trkpt>
      <trkpt lat="51.332501" lon="-1.323126">
        <ele>114.853065</ele>
        <time>2025-12-28T14:25:05.000Z</time>
      </trkpt>
      <trkpt lat="51.332343" lon="-1.323057">
        <ele>114.729582</ele>
        <time>2025-12-28T14:25:16.000Z</time>
      </trkpt>
      <trkpt lat="51.331946" lon="-1.322702">
        <ele>114.38731</ele>
        <time>2025-12-28T14:25:48.000Z</time>
      </trkpt>
      <trkpt lat="51.331563" lon="-1.322438">
        <ele>114.073157</ele>
        <time>2025-12-28T14:26:12.000Z</time>
      </trkpt>
      <trkpt lat="51.33116" lon="-1.322303">
        <ele>114.843399</ele>
        <time>2025-12-28T14:26:44.000Z</time>
      </trkpt>
      <trkpt lat="51.331002" lon="-1.322197">
        <ele>115.208721</ele>
        <time>2025-12-28T14:26:55.000Z</time>
      </trkpt>
      <trkpt lat="51.330862" lon="-1.322159">
        <ele>115.51216</ele>
        <time>2025-12-28T14:27:05.000Z</time>
      </trkpt>
      <trkpt lat="51.33064" lon="-1.322059">
        <ele>116.00205</ele>
        <time>2025-12-28T14:27:19.000Z</time>
      </trkpt>
      <trkpt lat="51.330599" lon="-1.322065">
        <ele>116.089504</ele>
        <time>2025-12-28T14:27:21.000Z</time>
      </trkpt>
      <trkpt lat="51.330494" lon="-1.32199">
        <ele>116.336763</ele>
        <time>2025-12-28T14:27:29.000Z</time>
      </trkpt>
      <trkpt lat="51.330381" lon="-1.321978">
        <ele>116.577492</ele>
        <time>2025-12-28T14:27:36.000Z</time>
      </trkpt>
      <trkpt lat="51.330367" lon="-1.322019">
        <ele>116.642342</ele>
        <time>2025-12-28T14:27:41.000Z</time>
      </trkpt>
      <trkpt lat="51.330424" lon="-1.322081">
        <ele>116.788736</ele>
        <time>2025-12-28T14:27:48.000Z</time>
      </trkpt>
      <trkpt lat="51.330487" lon="-1.322194">
        <ele>116.992364</ele>
        <time>2025-12-28T14:27:59.000Z</time>
      </trkpt>
      <trkpt lat="51.330486" lon="-1.322217">
        <ele>117.022964</ele>
        <time>2025-12-28T14:28:02.000Z</time>
      </trkpt>
      <trkpt lat="51.330525" lon="-1.322256">
        <ele>117.12142</ele>
        <time>2025-12-28T14:28:07.000Z</time>
      </trkpt>
      <trkpt lat="51.330556" lon="-1.322221">
        <ele>117.202005</ele>
        <time>2025-12-28T14:28:10.000Z</time>
      </trkpt>
      <trkpt lat="51.330614" lon="-1.32177">
        <ele>117.814178</ele>
        <time>2025-12-28T14:28:29.000Z</time>
      </trkpt>
      <trkpt lat="51.3307" lon="-1.320605">
        <ele>113.147016</ele>
        <time>2025-12-28T14:29:17.000Z</time>
      </trkpt>
      <trkpt lat="51.33072" lon="-1.320213">
        <ele>111.511883</ele>
        <time>2025-12-28T14:29:33.000Z</time>
      </trkpt>
      <trkpt lat="51.330716" lon="-1.319829">
        <ele>109.917215</ele>
        <time>2025-12-28T14:29:48.000Z</time>
      </trkpt>
      <trkpt lat="51.330734" lon="-1.319693">
        <ele>109.340469</ele>
        <time>2025-12-28T14:29:54.000Z</time>
      </trkpt>
      <trkpt lat="51.330737" lon="-1.319501">
        <ele>108.543664</ele>
        <time>2025-12-28T14:30:01.000Z</time>
      </trkpt>
      <trkpt lat="51.33073" lon="-1.318731">
        <ele>105.953175</ele>
        <time>2025-12-28T14:30:34.000Z</time>
      </trkpt>
      <trkpt lat="51.330682" lon="-1.318269">
        <ele>106.05555</ele>
        <time>2025-12-28T14:30:53.000Z</time>
      </trkpt>
      <trkpt lat="51.330626" lon="-1.318122">
        <ele>106.093161</ele>
        <time>2025-12-28T14:31:00.000Z</time>
      </trkpt>
      <trkpt lat="51.330532" lon="-1.318063">
        <ele>106.128462</ele>
        <time>2025-12-28T14:31:06.000Z</time>
      </trkpt>
      <trkpt lat="51.330385" lon="-1.318107">
        <ele>106.180747</ele>
        <time>2025-12-28T14:31:16.000Z</time>
      </trkpt>
      <trkpt lat="51.330083" lon="-1.318292">
        <ele>106.294604</ele>
        <time>2025-12-28T14:31:52.000Z</time>
      </trkpt>
      <trkpt lat="51.329946" lon="-1.318401">
        <ele>106.348094</ele>
        <time>2025-12-28T14:32:02.000Z</time>
      </trkpt>
      <trkpt lat="51.329705" lon="-1.318495">
        <ele>106.435007</ele>
        <time>2025-12-28T14:32:17.000Z</time>
      </trkpt>
      <trkpt lat="51.32933" lon="-1.318781">
        <ele>106.581287</ele>
        <time>2025-12-28T14:32:43.000Z</time>
      </trkpt>
      <trkpt lat="51.329051" lon="-1.318953">
        <ele>106.688595</ele>
        <time>2025-12-28T14:33:03.000Z</time>
      </trkpt>
      <trkpt lat="51.328981" lon="-1.31908">
        <ele>106.726937</ele>
        <time>2025-12-28T14:33:13.000Z</time>
      </trkpt>
      <trkpt lat="51.328741" lon="-1.319265">
        <ele>106.822537</ele>
        <time>2025-12-28T14:33:34.000Z</time>
      </trkpt>
      <trkpt lat="51.328211" lon="-1.319745">
        <ele>107.041188</ele>
        <time>2025-12-28T14:34:16.000Z</time>
      </trkpt>
      <trkpt lat="51.32769" lon="-1.320056">
        <ele>107.160886</ele>
        <time>2025-12-28T14:34:54.000Z</time>
      </trkpt>
      <trkpt lat="51.327308" lon="-1.320227">
        <ele>107.044784</ele>
        <time>2025-12-28T14:35:21.000Z</time>
      </trkpt>
      <trkpt lat="51.327116" lon="-1.320393">
        <ele>106.980835</ele>
        <time>2025-12-28T14:35:37.000Z</time>
      </trkpt>
      <trkpt lat="51.327054" lon="-1.320501">
        <ele>106.954031</ele>
        <time>2025-12-28T14:35:43.000Z</time>
      </trkpt>
      <trkpt lat="51.326759" lon="-1.321322">
        <ele>106.780869</ele>
        <time>2025-12-28T14:36:23.000Z</time>
      </trkpt>
      <trkpt lat="51.326677" lon="-1.321496">
        <ele>106.741037</ele>
        <time>2025-12-28T14:36:32.000Z</time>
      </trkpt>
      <trkpt lat="51.326565" lon="-1.32163">
        <ele>106.700136</ele>
        <time>2025-12-28T14:36:42.000Z</time>
      </trkpt>
      <trkpt lat="51.326091" lon="-1.321629">
        <ele>109.920489</ele>
        <time>2025-12-28T14:37:17.000Z</time>
      </trkpt>
      <trkpt lat="51.326008" lon="-1.321605">
        <ele>110.664265</ele>
        <time>2025-12-28T14:37:23.000Z</time>
      </trkpt>
      <trkpt lat="51.325933" lon="-1.321626">
        <ele>111.324366</ele>
        <time>2025-12-28T14:37:28.000Z</time>
      </trkpt>
      <trkpt lat="51.325725" lon="-1.321569">
        <ele>113.157981</ele>
        <time>2025-12-28T14:37:43.000Z</time>
      </trkpt>
      <trkpt lat="51.325659" lon="-1.321578">
        <ele>113.732609</ele>
        <time>2025-12-28T14:37:49.000Z</time>
      </trkpt>
      <trkpt lat="51.325605" lon="-1.32165">
        <ele>114.371501</ele>
        <time>2025-12-28T14:37:59.000Z</time>
      </trkpt>
      <trkpt lat="51.325522" lon="-1.321698">
        <ele>115.136627</ele>
        <time>2025-12-28T14:38:06.000Z</time>
      </trkpt>
      <trkpt lat="51.325405" lon="-1.321672">
        <ele>116.160707</ele>
        <time>2025-12-28T14:38:14.000Z</time>
      </trkpt>
      <trkpt lat="51.325329" lon="-1.321696">
        <ele>116.832305</ele>
        <time>2025-12-28T14:38:21.000Z</time>
      </trkpt>
      <trkpt lat="51.324847" lon="-1.322105">
        <ele>121.570735</ele>
        <time>2025-12-28T14:39:07.000Z</time>
      </trkpt>
      <trkpt lat="51.324705" lon="-1.32214">
        <ele>122.600107</ele>
        <time>2025-12-28T14:39:19.000Z</time>
      </trkpt>
      <trkpt lat="51.324547" lon="-1.322255">
        <ele>123.501214</ele>
        <time>2025-12-28T14:39:30.000Z</time>
      </trkpt>
      <trkpt lat="51.32447" lon="-1.322339">
        <ele>123.99371</ele>
        <time>2025-12-28T14:39:36.000Z</time>
      </trkpt>
      <trkpt lat="51.32411" lon="-1.322414">
        <ele>125.877939</ele>
        <time>2025-12-28T14:40:01.000Z</time>
      </trkpt>
      <trkpt lat="51.324009" lon="-1.322416">
        <ele>126.402128</ele>
        <time>2025-12-28T14:40:07.000Z</time>
      </trkpt>
      <trkpt lat="51.323934" lon="-1.322467">
        <ele>126.825033</ele>
        <time>2025-12-28T14:40:12.000Z</time>
      </trkpt>
      <trkpt lat="51.323842" lon="-1.322486">
        <ele>127.306435</ele>
        <time>2025-12-28T14:40:19.000Z</time>
      </trkpt>
      <trkpt lat="51.323749" lon="-1.322477">
        <ele>127.792547</ele>
        <time>2025-12-28T14:40:25.000Z</time>
      </trkpt>
      <trkpt lat="51.323583" lon="-1.322571">
        <ele>128.710067</ele>
        <time>2025-12-28T14:40:35.000Z</time>
      </trkpt>
      <trkpt lat="51.323441" lon="-1.322695">
        <ele>129.549609</ele>
        <time>2025-12-28T14:40:45.000Z</time>
      </trkpt>
      <trkpt lat="51.32331" lon="-1.322758">
        <ele>130.259485</ele>
        <time>2025-12-28T14:40:52.000Z</time>
      </trkpt>
      <trkpt lat="51.32325" lon="-1.322748">
        <ele>130.572546</ele>
        <time>2025-12-28T14:40:56.000Z</time>
      </trkpt>
      <trkpt lat="51.323172" lon="-1.322682">
        <ele>131.03423</ele>
        <time>2025-12-28T14:41:04.000Z</time>
      </trkpt>
      <trkpt lat="51.322943" lon="-1.322807">
        <ele>131.121409</ele>
        <time>2025-12-28T14:41:22.000Z</time>
      </trkpt>
      <trkpt lat="51.322831" lon="-1.322812">
        <ele>130.721319</ele>
        <time>2025-12-28T14:41:27.000Z</time>
      </trkpt>
      <trkpt lat="51.322743" lon="-1.322851">
        <ele>130.395127</ele>
        <time>2025-12-28T14:41:33.000Z</time>
      </trkpt>
      <trkpt lat="51.322658" lon="-1.322946">
        <ele>130.022851</ele>
        <time>2025-12-28T14:41:40.000Z</time>
      </trkpt>
      <trkpt lat="51.322606" lon="-1.322972">
        <ele>129.828314</ele>
        <time>2025-12-28T14:41:43.000Z</time>
      </trkpt>
      <trkpt lat="51.322511" lon="-1.322975">
        <ele>129.489018</ele>
        <time>2025-12-28T14:41:50.000Z</time>
      </trkpt>
      <trkpt lat="51.322401" lon="-1.323098">
        <ele>129.007746</ele>
        <time>2025-12-28T14:42:00.000Z</time>
      </trkpt>
      <trkpt lat="51.322345" lon="-1.323342">
        <ele>128.42769</ele>
        <time>2025-12-28T14:42:11.000Z</time>
      </trkpt>
      <trkpt lat="51.322145" lon="-1.323795">
        <ele>127.18834</ele>
        <time>2025-12-28T14:42:37.000Z</time>
      </trkpt>
      <trkpt lat="51.322066" lon="-1.323863">
        <ele>126.86802</ele>
        <time>2025-12-28T14:42:44.000Z</time>
      </trkpt>
      <trkpt lat="51.321934" lon="-1.323905">
        <ele>126.387442</ele>
        <time>2025-12-28T14:42:55.000Z</time>
      </trkpt>
      <trkpt lat="51.321752" lon="-1.324062">
        <ele>125.648863</ele>
        <time>2025-12-28T14:43:10.000Z</time>
      </trkpt>
      <trkpt lat="51.321643" lon="-1.324283">
        <ele>125.31893</ele>
        <time>2025-12-28T14:43:24.000Z</time>
      </trkpt>
      <trkpt lat="51.321543" lon="-1.324407">
        <ele>125.734637</ele>
        <time>2025-12-28T14:43:33.000Z</time>
      </trkpt>
      <trkpt lat="51.321263" lon="-1.324503">
        <ele>126.681281</ele>
        <time>2025-12-28T14:43:54.000Z</time>
      </trkpt>
      <trkpt lat="51.321251" lon="-1.324554">
        <ele>126.793141</ele>
        <time>2025-12-28T14:43:58.000Z</time>
      </trkpt>
      <trkpt lat="51.321072" lon="-1.324676">
        <ele>127.432422</ele>
        <time>2025-12-28T14:44:08.000Z</time>
      </trkpt>
      <trkpt lat="51.321039" lon="-1.324744">
        <ele>127.609145</ele>
        <time>2025-12-28T14:44:12.000Z</time>
      </trkpt>
      <trkpt lat="51.320925" lon="-1.32485">
        <ele>128.043603</ele>
        <time>2025-12-28T14:44:21.000Z</time>
      </trkpt>
      <trkpt lat="51.320824" lon="-1.324981">
        <ele>128.470632</ele>
        <time>2025-12-28T14:44:30.000Z</time>
      </trkpt>
      <trkpt lat="51.320658" lon="-1.325106">
        <ele>129.073906</ele>
        <time>2025-12-28T14:44:41.000Z</time>
      </trkpt>
      <trkpt lat="51.320539" lon="-1.325115">
        <ele>129.465434</ele>
        <time>2025-12-28T14:44:57.000Z</time>
      </trkpt>
      <trkpt lat="51.320264" lon="-1.325192">
        <ele>130.382699</ele>
        <time>2025-12-28T14:45:15.000Z</time>
      </trkpt>
      <trkpt lat="51.319917" lon="-1.325358">
        <ele>131.17499</ele>
        <time>2025-12-28T14:45:40.000Z</time>
      </trkpt>
      <trkpt lat="51.319717" lon="-1.32541">
        <ele>131.29932</ele>
        <time>2025-12-28T14:45:54.000Z</time>
      </trkpt>
      <trkpt lat="51.319303" lon="-1.325722">
        <ele>131.580775</ele>
        <time>2025-12-28T14:46:27.000Z</time>
      </trkpt>
      <trkpt lat="51.318624" lon="-1.326121">
        <ele>132.025226</ele>
        <time>2025-12-28T14:47:18.000Z</time>
      </trkpt>
      <trkpt lat="51.318561" lon="-1.326207">
        <ele>132.076037</ele>
        <time>2025-12-28T14:47:26.000Z</time>
      </trkpt>
      <trkpt lat="51.318533" lon="-1.326256">
        <ele>132.101499</ele>
        <time>2025-12-28T14:47:41.000Z</time>
      </trkpt>
      <trkpt lat="51.318538" lon="-1.326468">
        <ele>132.183388</ele>
        <time>2025-12-28T14:47:51.000Z</time>
      </trkpt>
      <trkpt lat="51.318506" lon="-1.327168">
        <ele>134.182659</ele>
        <time>2025-12-28T14:48:21.000Z</time>
      </trkpt>
      <trkpt lat="51.318477" lon="-1.327323">
        <ele>134.647651</ele>
        <time>2025-12-28T14:48:28.000Z</time>
      </trkpt>
      <trkpt lat="51.31847" lon="-1.327468">
        <ele>135.065566</ele>
        <time>2025-12-28T14:48:35.000Z</time>
      </trkpt>
      <trkpt lat="51.318469" lon="-1.327567">
        <ele>135.355051</ele>
        <time>2025-12-28T14:48:41.000Z</time>
      </trkpt>
      <trkpt lat="51.318493" lon="-1.327645">
        <ele>135.622961</ele>
        <time>2025-12-28T14:48:50.000Z</time>
      </trkpt>
      <trkpt lat="51.318487" lon="-1.327772">
        <ele>135.988973</ele>
        <time>2025-12-28T14:48:55.000Z</time>
      </trkpt>
      <trkpt lat="51.318434" lon="-1.328021">
        <ele>136.749005</ele>
        <time>2025-12-28T14:49:04.000Z</time>
      </trkpt>
      <trkpt lat="51.318437" lon="-1.328202">
        <ele>137.269312</ele>
        <time>2025-12-28T14:49:12.000Z</time>
      </trkpt>
      <trkpt lat="51.318415" lon="-1.328502">
        <ele>138.137335</ele>
        <time>2025-12-28T14:49:26.000Z</time>
      </trkpt>
      <trkpt lat="51.318381" lon="-1.328671">
        <ele>138.647517</ele>
        <time>2025-12-28T14:49:34.000Z</time>
      </trkpt>
      <trkpt lat="51.31832" lon="-1.328856">
        <ele>139.249566</ele>
        <time>2025-12-28T14:49:46.000Z</time>
      </trkpt>
      <trkpt lat="51.318297" lon="-1.329087">
        <ele>139.92851</ele>
        <time>2025-12-28T14:49:58.000Z</time>
      </trkpt>
      <trkpt lat="51.318275" lon="-1.329134">
        <ele>140.101942</ele>
        <time>2025-12-28T14:50:00.000Z</time>
      </trkpt>
      <trkpt lat="51.318188" lon="-1.329585">
        <ele>139.805759</ele>
        <time>2025-12-28T14:50:22.000Z</time>
      </trkpt>
      <trkpt lat="51.318105" lon="-1.329736">
        <ele>139.430008</ele>
        <time>2025-12-28T14:50:30.000Z</time>
      </trkpt>
      <trkpt lat="51.318064" lon="-1.329934">
        <ele>139.038517</ele>
        <time>2025-12-28T14:50:38.000Z</time>
      </trkpt>
      <trkpt lat="51.31799" lon="-1.330652">
        <ele>137.678009</ele>
        <time>2025-12-28T14:51:08.000Z</time>
      </trkpt>
      <trkpt lat="51.317889" lon="-1.331783">
        <ele>135.540486</ele>
        <time>2025-12-28T14:51:55.000Z</time>
      </trkpt>
      <trkpt lat="51.317839" lon="-1.332506">
        <ele>135.292837</ele>
        <time>2025-12-28T14:52:26.000Z</time>
      </trkpt>
      <trkpt lat="51.317828" lon="-1.332982">
        <ele>135.50305</ele>
        <time>2025-12-28T14:52:46.000Z</time>
      </trkpt>
      <trkpt lat="51.317809" lon="-1.333213">
        <ele>135.605874</ele>
        <time>2025-12-28T14:52:55.000Z</time>
      </trkpt>
      <trkpt lat="51.317782" lon="-1.3334">
        <ele>135.690574</ele>
        <time>2025-12-28T14:53:03.000Z</time>
      </trkpt>
      <trkpt lat="51.317678" lon="-1.334694">
        <ele>136.266733</ele>
        <time>2025-12-28T14:53:57.000Z</time>
      </trkpt>
      <trkpt lat="51.317624" lon="-1.335075">
        <ele>136.93609</ele>
        <time>2025-12-28T14:54:14.000Z</time>
      </trkpt>
      <trkpt lat="51.3176" lon="-1.335483">
        <ele>138.121045</ele>
        <time>2025-12-28T14:54:32.000Z</time>
      </trkpt>
      <trkpt lat="51.317564" lon="-1.335655">
        <ele>138.645444</ele>
        <time>2025-12-28T14:54:40.000Z</time>
      </trkpt>
      <trkpt lat="51.317513" lon="-1.33625">
        <ele>140.381101</ele>
        <time>2025-12-28T14:55:05.000Z</time>
      </trkpt>
      <trkpt lat="51.317532" lon="-1.336396">
        <ele>140.814577</ele>
        <time>2025-12-28T14:55:13.000Z</time>
      </trkpt>
      <trkpt lat="51.317592" lon="-1.336476">
        <ele>141.176193</ele>
        <time>2025-12-28T14:55:18.000Z</time>
      </trkpt>
      <trkpt lat="51.317654" lon="-1.336604">
        <ele>141.644957</ele>
        <time>2025-12-28T14:55:27.000Z</time>
      </trkpt>
      <trkpt lat="51.317764" lon="-1.3367">
        <ele>142.224251</ele>
        <time>2025-12-28T14:55:36.000Z</time>
      </trkpt>
      <trkpt lat="51.317804" lon="-1.336756">
        <ele>142.469975</ele>
        <time>2025-12-28T14:55:40.000Z</time>
      </trkpt>
      <trkpt lat="51.317813" lon="-1.336801">
        <ele>142.606496</ele>
        <time>2025-12-28T14:55:42.000Z</time>
      </trkpt>
      <trkpt lat="51.317791" lon="-1.336923">
        <ele>142.973391</ele>
        <time>2025-12-28T14:55:49.000Z</time>
      </trkpt>
      <trkpt lat="51.317681" lon="-1.336979">
        <ele>143.50706</ele>
        <time>2025-12-28T14:55:57.000Z</time>
      </trkpt>
      <trkpt lat="51.317586" lon="-1.337138">
        <ele>144.142646</ele>
        <time>2025-12-28T14:56:06.000Z</time>
      </trkpt>
      <trkpt lat="51.317463" lon="-1.337452">
        <ele>144.665047</ele>
        <time>2025-12-28T14:56:21.000Z</time>
      </trkpt>
      <trkpt lat="51.317347" lon="-1.337811">
        <ele>144.665047</ele>
        <time>2025-12-28T14:56:39.000Z</time>
      </trkpt>
      <trkpt lat="51.317266" lon="-1.337947">
        <ele>144.665047</ele>
        <time>2025-12-28T14:56:47.000Z</time>
      </trkpt>
      <trkpt lat="51.317219" lon="-1.338092">
        <ele>144.665047</ele>
        <time>2025-12-28T14:56:54.000Z</time>
      </trkpt>
      <trkpt lat="51.317136" lon="-1.338241">
        <ele>144.665047</ele>
        <time>2025-12-28T14:57:03.000Z</time>
      </trkpt>
      <trkpt lat="51.317005" lon="-1.338354">
        <ele>144.665047</ele>
        <time>2025-12-28T14:57:13.000Z</time>
      </trkpt>
      <trkpt lat="51.316913" lon="-1.338339">
        <ele>144.665047</ele>
        <time>2025-12-28T14:57:20.000Z</time>
      </trkpt>
      <trkpt lat="51.316841" lon="-1.338255">
        <ele>144.665047</ele>
        <time>2025-12-28T14:57:27.000Z</time>
      </trkpt>
      <trkpt lat="51.316748" lon="-1.337905">
        <ele>144.665047</ele>
        <time>2025-12-28T14:57:45.000Z</time>
      </trkpt>
      <trkpt lat="51.316612" lon="-1.337543">
        <ele>144.665047</ele>
        <time>2025-12-28T14:58:04.000Z</time>
      </trkpt>
      <trkpt lat="51.316573" lon="-1.337551">
        <ele>144.665047</ele>
        <time>2025-12-28T14:58:35.000Z</time>
      </trkpt>
    </trkseg>
  </trk>
</gpx>
