<?xml version="1.0" encoding="UTF-8"?>
<gpx version="1.1" creator="https://www.komoot.de" schemaLocation="http://www.topografix.com/GPX/1/1 http://www.topografix.com/GPX/1/1/gpx.xsd" xmlns="http://www.topografix.com/GPX/1/1" xmlns:xsi="http://www.w3.org/2001/XMLSchema-instance" xsi:schemaLocation="http://www.topografix.com/GPX/1/1 http://www.topografix.com/GPX/1/1/gpx.xsd http://www.garmin.com/xmlschemas/GpxExtensions/v3 http://www.garmin.com/xmlschemas/GpxExtensionsv3.xsd http://www.garmin.com/xmlschemas/TrackPointExtension/v1 http://www.garmin.com/xmlschemas/TrackPointExtensionv1.xsd http://www.garmin.com/xmlschemas/PowerExtension/v1 http://www.garmin.com/xmlschemas/PowerExtensionv1.xsd http://www.topografix.com/GPX/gpx_style/0/2 http://www.topografix.com/GPX/gpx_style/0/2/gpx_style.xsd" xmlns:gpxtpx="http://www.garmin.com/xmlschemas/TrackPointExtension/v1" xmlns:gpxx="http://www.garmin.com/xmlschemas/GpxExtensions/v3" xmlns:gpxpx="http://www.garmin.com/xmlschemas/PowerExtension/v1" xmlns:gpx_style="http://www.topografix.com/GPX/gpx_style/0/2">
  <metadata>
    <name>Shaw, Donnington and Snellsmore Circuit</name>
    <author>
      <name>gpx.studio</name>
      <link href="https://gpx.studio"/>
    </author>
  </metadata>
  <trk>
    <name>Shaw, Donnington and Snellsmore Circuit</name>
    <type>hike</type>
    <trkseg>
      <trkpt lat="51.407038" lon="-1.316438">
        <ele>69.387205</ele>
        <time>2026-04-12T09:38:10.000Z</time>
      </trkpt>
      <trkpt lat="51.407085" lon="-1.316458">
        <ele>69.387205</ele>
        <time>2026-04-12T09:38:16.000Z</time>
      </trkpt>
      <trkpt lat="51.407121" lon="-1.316386">
        <ele>69.387205</ele>
        <time>2026-04-12T09:38:22.000Z</time>
      </trkpt>
      <trkpt lat="51.407242" lon="-1.316336">
        <ele>69.387205</ele>
        <time>2026-04-12T09:38:30.000Z</time>
      </trkpt>
      <trkpt lat="51.407402" lon="-1.315961">
        <ele>69.387205</ele>
        <time>2026-04-12T09:38:48.000Z</time>
      </trkpt>
      <trkpt lat="51.407642" lon="-1.315484">
        <ele>69.387205</ele>
        <time>2026-04-12T09:39:12.000Z</time>
      </trkpt>
      <trkpt lat="51.40779" lon="-1.315256">
        <ele>69.63074</ele>
        <time>2026-04-12T09:39:25.000Z</time>
      </trkpt>
      <trkpt lat="51.407901" lon="-1.315141">
        <ele>69.788879</ele>
        <time>2026-04-12T09:39:33.000Z</time>
      </trkpt>
      <trkpt lat="51.408207" lon="-1.314921">
        <ele>70.190208</ele>
        <time>2026-04-12T09:39:55.000Z</time>
      </trkpt>
      <trkpt lat="51.408564" lon="-1.314744">
        <ele>70.637479</ele>
        <time>2026-04-12T09:40:19.000Z</time>
      </trkpt>
      <trkpt lat="51.40915" lon="-1.314568">
        <ele>71.351632</ele>
        <time>2026-04-12T09:40:55.000Z</time>
      </trkpt>
      <trkpt lat="51.409703" lon="-1.314256">
        <ele>73.444828</ele>
        <time>2026-04-12T09:41:34.000Z</time>
      </trkpt>
      <trkpt lat="51.409835" lon="-1.31424">
        <ele>74.042695</ele>
        <time>2026-04-12T09:41:43.000Z</time>
      </trkpt>
      <trkpt lat="51.410249" lon="-1.314846">
        <ele>76.537462</ele>
        <time>2026-04-12T09:42:17.000Z</time>
      </trkpt>
      <trkpt lat="51.410538" lon="-1.315202">
        <ele>78.156366</ele>
        <time>2026-04-12T09:42:40.000Z</time>
      </trkpt>
      <trkpt lat="51.411038" lon="-1.316042">
        <ele>79.506162</ele>
        <time>2026-04-12T09:43:26.000Z</time>
      </trkpt>
      <trkpt lat="51.411175" lon="-1.316204">
        <ele>79.502484</ele>
        <time>2026-04-12T09:43:38.000Z</time>
      </trkpt>
      <trkpt lat="51.411387" lon="-1.316966">
        <ele>79.491311</ele>
        <time>2026-04-12T09:44:12.000Z</time>
      </trkpt>
      <trkpt lat="51.41144" lon="-1.317604">
        <ele>79.482691</ele>
        <time>2026-04-12T09:44:39.000Z</time>
      </trkpt>
      <trkpt lat="51.411438" lon="-1.317733">
        <ele>79.480964</ele>
        <time>2026-04-12T09:44:45.000Z</time>
      </trkpt>
      <trkpt lat="51.411425" lon="-1.317744">
        <ele>79.480649</ele>
        <time>2026-04-12T09:44:46.000Z</time>
      </trkpt>
      <trkpt lat="51.411172" lon="-1.317787">
        <ele>79.303674</ele>
        <time>2026-04-12T09:45:01.000Z</time>
      </trkpt>
      <trkpt lat="51.410837" lon="-1.317402">
        <ele>78.192547</ele>
        <time>2026-04-12T09:45:28.000Z</time>
      </trkpt>
      <trkpt lat="51.410596" lon="-1.317238">
        <ele>77.485502</ele>
        <time>2026-04-12T09:45:44.000Z</time>
      </trkpt>
      <trkpt lat="51.410521" lon="-1.317249">
        <ele>77.280379</ele>
        <time>2026-04-12T09:45:50.000Z</time>
      </trkpt>
      <trkpt lat="51.410436" lon="-1.317323">
        <ele>77.018071</ele>
        <time>2026-04-12T09:45:58.000Z</time>
      </trkpt>
      <trkpt lat="51.410454" lon="-1.317623">
        <ele>76.51137</ele>
        <time>2026-04-12T09:46:11.000Z</time>
      </trkpt>
      <trkpt lat="51.410539" lon="-1.317931">
        <ele>75.943547</ele>
        <time>2026-04-12T09:46:25.000Z</time>
      </trkpt>
      <trkpt lat="51.410577" lon="-1.318238">
        <ele>75.4179</ele>
        <time>2026-04-12T09:46:37.000Z</time>
      </trkpt>
      <trkpt lat="51.410623" lon="-1.318394">
        <ele>75.12815</ele>
        <time>2026-04-12T09:46:44.000Z</time>
      </trkpt>
      <trkpt lat="51.410659" lon="-1.318625">
        <ele>74.728333</ele>
        <time>2026-04-12T09:46:54.000Z</time>
      </trkpt>
      <trkpt lat="51.410782" lon="-1.319136">
        <ele>74.609065</ele>
        <time>2026-04-12T09:47:16.000Z</time>
      </trkpt>
      <trkpt lat="51.410854" lon="-1.319526">
        <ele>74.588051</ele>
        <time>2026-04-12T09:47:33.000Z</time>
      </trkpt>
      <trkpt lat="51.410946" lon="-1.319656">
        <ele>74.577913</ele>
        <time>2026-04-12T09:47:41.000Z</time>
      </trkpt>
      <trkpt lat="51.411292" lon="-1.319887">
        <ele>74.547037</ele>
        <time>2026-04-12T09:48:07.000Z</time>
      </trkpt>
      <trkpt lat="51.411313" lon="-1.319976">
        <ele>74.542152</ele>
        <time>2026-04-12T09:48:11.000Z</time>
      </trkpt>
      <trkpt lat="51.411538" lon="-1.320245">
        <ele>74.519042</ele>
        <time>2026-04-12T09:48:29.000Z</time>
      </trkpt>
      <trkpt lat="51.411605" lon="-1.320409">
        <ele>74.508976</ele>
        <time>2026-04-12T09:48:38.000Z</time>
      </trkpt>
      <trkpt lat="51.411448" lon="-1.3209">
        <ele>74.538947</ele>
        <time>2026-04-12T09:49:01.000Z</time>
      </trkpt>
      <trkpt lat="51.411466" lon="-1.321678">
        <ele>74.913208</ele>
        <time>2026-04-12T09:49:32.000Z</time>
      </trkpt>
      <trkpt lat="51.411505" lon="-1.32183">
        <ele>74.992038</ele>
        <time>2026-04-12T09:49:39.000Z</time>
      </trkpt>
      <trkpt lat="51.411858" lon="-1.322126">
        <ele>75.298404</ele>
        <time>2026-04-12T09:50:04.000Z</time>
      </trkpt>
      <trkpt lat="51.412065" lon="-1.322116">
        <ele>75.458264</ele>
        <time>2026-04-12T09:50:18.000Z</time>
      </trkpt>
      <trkpt lat="51.412622" lon="-1.32223">
        <ele>75.883021</ele>
        <time>2026-04-12T09:50:53.000Z</time>
      </trkpt>
      <trkpt lat="51.412867" lon="-1.322605">
        <ele>76.048381</ele>
        <time>2026-04-12T09:51:15.000Z</time>
      </trkpt>
      <trkpt lat="51.412899" lon="-1.322773">
        <ele>76.101899</ele>
        <time>2026-04-12T09:51:23.000Z</time>
      </trkpt>
      <trkpt lat="51.412928" lon="-1.323392">
        <ele>76.291173</ele>
        <time>2026-04-12T09:51:48.000Z</time>
      </trkpt>
      <trkpt lat="51.412984" lon="-1.323846">
        <ele>76.431881</ele>
        <time>2026-04-12T09:52:08.000Z</time>
      </trkpt>
      <trkpt lat="51.413098" lon="-1.323985">
        <ele>76.502454</ele>
        <time>2026-04-12T09:52:18.000Z</time>
      </trkpt>
      <trkpt lat="51.413184" lon="-1.324005">
        <ele>76.544807</ele>
        <time>2026-04-12T09:52:24.000Z</time>
      </trkpt>
      <trkpt lat="51.413536" lon="-1.323982">
        <ele>76.716698</ele>
        <time>2026-04-12T09:52:47.000Z</time>
      </trkpt>
      <trkpt lat="51.413718" lon="-1.324141">
        <ele>77.36533</ele>
        <time>2026-04-12T09:53:02.000Z</time>
      </trkpt>
      <trkpt lat="51.413792" lon="-1.324177">
        <ele>77.690012</ele>
        <time>2026-04-12T09:53:07.000Z</time>
      </trkpt>
      <trkpt lat="51.413888" lon="-1.324189">
        <ele>78.0943</ele>
        <time>2026-04-12T09:53:13.000Z</time>
      </trkpt>
      <trkpt lat="51.414535" lon="-1.324081">
        <ele>80.831767</ele>
        <time>2026-04-12T09:53:57.000Z</time>
      </trkpt>
      <trkpt lat="51.414601" lon="-1.32418">
        <ele>81.211232</ele>
        <time>2026-04-12T09:54:04.000Z</time>
      </trkpt>
      <trkpt lat="51.414644" lon="-1.324811">
        <ele>82.874455</ele>
        <time>2026-04-12T09:54:30.000Z</time>
      </trkpt>
      <trkpt lat="51.414706" lon="-1.325017">
        <ele>83.473407</ele>
        <time>2026-04-12T09:54:39.000Z</time>
      </trkpt>
      <trkpt lat="51.414816" lon="-1.32514">
        <ele>84.037914</ele>
        <time>2026-04-12T09:54:48.000Z</time>
      </trkpt>
      <trkpt lat="51.415086" lon="-1.326354">
        <ele>85.483754</ele>
        <time>2026-04-12T09:55:40.000Z</time>
      </trkpt>
      <trkpt lat="51.415216" lon="-1.326654">
        <ele>85.848614</ele>
        <time>2026-04-12T09:55:57.000Z</time>
      </trkpt>
      <trkpt lat="51.415305" lon="-1.326963">
        <ele>86.187506</ele>
        <time>2026-04-12T09:56:12.000Z</time>
      </trkpt>
      <trkpt lat="51.415406" lon="-1.327584">
        <ele>86.826583</ele>
        <time>2026-04-12T09:56:36.000Z</time>
      </trkpt>
      <trkpt lat="51.41555" lon="-1.328214">
        <ele>86.782469</ele>
        <time>2026-04-12T09:57:03.000Z</time>
      </trkpt>
      <trkpt lat="51.415542" lon="-1.328378">
        <ele>86.589896</ele>
        <time>2026-04-12T09:57:09.000Z</time>
      </trkpt>
      <trkpt lat="51.415729" lon="-1.329422">
        <ele>85.31727</ele>
        <time>2026-04-12T09:57:52.000Z</time>
      </trkpt>
      <trkpt lat="51.415814" lon="-1.330015">
        <ele>84.604673</ele>
        <time>2026-04-12T09:58:16.000Z</time>
      </trkpt>
      <trkpt lat="51.415883" lon="-1.330169">
        <ele>84.382694</ele>
        <time>2026-04-12T09:58:24.000Z</time>
      </trkpt>
      <trkpt lat="51.415985" lon="-1.330167">
        <ele>84.191221</ele>
        <time>2026-04-12T09:58:31.000Z</time>
      </trkpt>
      <trkpt lat="51.416122" lon="-1.330083">
        <ele>83.914152</ele>
        <time>2026-04-12T09:58:41.000Z</time>
      </trkpt>
      <trkpt lat="51.416332" lon="-1.330089">
        <ele>83.964312</ele>
        <time>2026-04-12T09:58:57.000Z</time>
      </trkpt>
      <trkpt lat="51.416572" lon="-1.330739">
        <ele>84.512349</ele>
        <time>2026-04-12T09:59:29.000Z</time>
      </trkpt>
      <trkpt lat="51.416867" lon="-1.331848">
        <ele>85.387139</ele>
        <time>2026-04-12T10:00:17.000Z</time>
      </trkpt>
      <trkpt lat="51.417083" lon="-1.33242">
        <ele>85.872368</ele>
        <time>2026-04-12T10:00:46.000Z</time>
      </trkpt>
      <trkpt lat="51.417118" lon="-1.332504">
        <ele>86.030461</ele>
        <time>2026-04-12T10:00:51.000Z</time>
      </trkpt>
      <trkpt lat="51.417389" lon="-1.33278">
        <ele>86.891777</ele>
        <time>2026-04-12T10:01:17.000Z</time>
      </trkpt>
      <trkpt lat="51.417425" lon="-1.332857">
        <ele>87.055805</ele>
        <time>2026-04-12T10:01:25.000Z</time>
      </trkpt>
      <trkpt lat="51.417387" lon="-1.332966">
        <ele>87.266318</ele>
        <time>2026-04-12T10:01:31.000Z</time>
      </trkpt>
      <trkpt lat="51.417358" lon="-1.333142">
        <ele>87.570459</ele>
        <time>2026-04-12T10:01:39.000Z</time>
      </trkpt>
      <trkpt lat="51.41727" lon="-1.333342">
        <ele>87.979403</ele>
        <time>2026-04-12T10:01:49.000Z</time>
      </trkpt>
      <trkpt lat="51.417223" lon="-1.33368">
        <ele>88.557984</ele>
        <time>2026-04-12T10:02:03.000Z</time>
      </trkpt>
      <trkpt lat="51.417184" lon="-1.333805">
        <ele>88.791505</ele>
        <time>2026-04-12T10:02:09.000Z</time>
      </trkpt>
      <trkpt lat="51.417177" lon="-1.334034">
        <ele>89.174566</ele>
        <time>2026-04-12T10:02:18.000Z</time>
      </trkpt>
      <trkpt lat="51.417108" lon="-1.334291">
        <ele>89.643757</ele>
        <time>2026-04-12T10:02:30.000Z</time>
      </trkpt>
      <trkpt lat="51.417092" lon="-1.33481">
        <ele>90.514052</ele>
        <time>2026-04-12T10:02:51.000Z</time>
      </trkpt>
      <trkpt lat="51.41707" lon="-1.334899">
        <ele>90.675313</ele>
        <time>2026-04-12T10:02:55.000Z</time>
      </trkpt>
      <trkpt lat="51.417122" lon="-1.335281">
        <ele>90.482079</ele>
        <time>2026-04-12T10:03:11.000Z</time>
      </trkpt>
      <trkpt lat="51.417129" lon="-1.335625">
        <ele>90.279667</ele>
        <time>2026-04-12T10:03:26.000Z</time>
      </trkpt>
      <trkpt lat="51.417077" lon="-1.33597">
        <ele>90.072455</ele>
        <time>2026-04-12T10:03:39.000Z</time>
      </trkpt>
      <trkpt lat="51.417111" lon="-1.336209">
        <ele>89.930682</ele>
        <time>2026-04-12T10:03:49.000Z</time>
      </trkpt>
      <trkpt lat="51.417041" lon="-1.336895">
        <ele>89.528479</ele>
        <time>2026-04-12T10:04:17.000Z</time>
      </trkpt>
      <trkpt lat="51.417101" lon="-1.33737">
        <ele>89.24471</ele>
        <time>2026-04-12T10:04:39.000Z</time>
      </trkpt>
      <trkpt lat="51.417098" lon="-1.337521">
        <ele>89.15767</ele>
        <time>2026-04-12T10:04:45.000Z</time>
      </trkpt>
      <trkpt lat="51.417222" lon="-1.337733">
        <ele>89.415169</ele>
        <time>2026-04-12T10:04:58.000Z</time>
      </trkpt>
      <trkpt lat="51.417392" lon="-1.33782">
        <ele>90.682113</ele>
        <time>2026-04-12T10:05:09.000Z</time>
      </trkpt>
      <trkpt lat="51.41751" lon="-1.337838">
        <ele>91.523669</ele>
        <time>2026-04-12T10:05:17.000Z</time>
      </trkpt>
      <trkpt lat="51.417818" lon="-1.33779">
        <ele>93.726918</ele>
        <time>2026-04-12T10:05:39.000Z</time>
      </trkpt>
      <trkpt lat="51.418093" lon="-1.337792">
        <ele>95.680706</ele>
        <time>2026-04-12T10:05:59.000Z</time>
      </trkpt>
      <trkpt lat="51.418366" lon="-1.33769">
        <ele>97.670993</ele>
        <time>2026-04-12T10:06:20.000Z</time>
      </trkpt>
      <trkpt lat="51.418552" lon="-1.337565">
        <ele>99.118874</ele>
        <time>2026-04-12T10:06:38.000Z</time>
      </trkpt>
      <trkpt lat="51.418587" lon="-1.337584">
        <ele>99.382121</ele>
        <time>2026-04-12T10:06:41.000Z</time>
      </trkpt>
      <trkpt lat="51.418658" lon="-1.33838">
        <ele>102.639619</ele>
        <time>2026-04-12T10:07:18.000Z</time>
      </trkpt>
      <trkpt lat="51.418785" lon="-1.338871">
        <ele>104.348949</ele>
        <time>2026-04-12T10:07:39.000Z</time>
      </trkpt>
      <trkpt lat="51.418983" lon="-1.339479">
        <ele>106.552006</ele>
        <time>2026-04-12T10:08:08.000Z</time>
      </trkpt>
      <trkpt lat="51.419058" lon="-1.339632">
        <ele>107.176939</ele>
        <time>2026-04-12T10:08:15.000Z</time>
      </trkpt>
      <trkpt lat="51.419063" lon="-1.339717">
        <ele>107.451103</ele>
        <time>2026-04-12T10:08:19.000Z</time>
      </trkpt>
      <trkpt lat="51.419253" lon="-1.339911">
        <ele>108.621434</ele>
        <time>2026-04-12T10:08:34.000Z</time>
      </trkpt>
      <trkpt lat="51.419397" lon="-1.340011">
        <ele>109.429482</ele>
        <time>2026-04-12T10:08:44.000Z</time>
      </trkpt>
      <trkpt lat="51.419506" lon="-1.340296">
        <ele>110.503104</ele>
        <time>2026-04-12T10:08:55.000Z</time>
      </trkpt>
      <trkpt lat="51.41955" lon="-1.340348">
        <ele>110.784748</ele>
        <time>2026-04-12T10:09:00.000Z</time>
      </trkpt>
      <trkpt lat="51.419617" lon="-1.340499">
        <ele>110.860042</ele>
        <time>2026-04-12T10:09:08.000Z</time>
      </trkpt>
      <trkpt lat="51.420073" lon="-1.34106">
        <ele>108.844553</ele>
        <time>2026-04-12T10:09:51.000Z</time>
      </trkpt>
      <trkpt lat="51.420175" lon="-1.341435">
        <ele>107.951586</ele>
        <time>2026-04-12T10:10:07.000Z</time>
      </trkpt>
      <trkpt lat="51.420228" lon="-1.341502">
        <ele>107.713248</ele>
        <time>2026-04-12T10:10:11.000Z</time>
      </trkpt>
      <trkpt lat="51.420235" lon="-1.341565">
        <ele>107.573786</ele>
        <time>2026-04-12T10:10:14.000Z</time>
      </trkpt>
      <trkpt lat="51.420629" lon="-1.342239">
        <ele>105.558217</ele>
        <time>2026-04-12T10:10:52.000Z</time>
      </trkpt>
      <trkpt lat="51.420713" lon="-1.342343">
        <ele>105.185933</ele>
        <time>2026-04-12T10:11:00.000Z</time>
      </trkpt>
      <trkpt lat="51.420825" lon="-1.342642">
        <ele>104.269237</ele>
        <time>2026-04-12T10:11:12.000Z</time>
      </trkpt>
      <trkpt lat="51.420921" lon="-1.34272">
        <ele>103.734631</ele>
        <time>2026-04-12T10:11:18.000Z</time>
      </trkpt>
      <trkpt lat="51.421009" lon="-1.342925">
        <ele>102.952405</ele>
        <time>2026-04-12T10:11:29.000Z</time>
      </trkpt>
      <trkpt lat="51.42095" lon="-1.343021">
        <ele>102.534929</ele>
        <time>2026-04-12T10:11:33.000Z</time>
      </trkpt>
      <trkpt lat="51.420903" lon="-1.343246">
        <ele>101.799978</ele>
        <time>2026-04-12T10:11:42.000Z</time>
      </trkpt>
      <trkpt lat="51.420883" lon="-1.343436">
        <ele>101.203166</ele>
        <time>2026-04-12T10:11:50.000Z</time>
      </trkpt>
      <trkpt lat="51.420802" lon="-1.343819">
        <ele>99.947693</ele>
        <time>2026-04-12T10:12:07.000Z</time>
      </trkpt>
      <trkpt lat="51.420782" lon="-1.344129">
        <ele>98.981503</ele>
        <time>2026-04-12T10:12:21.000Z</time>
      </trkpt>
      <trkpt lat="51.420704" lon="-1.344527">
        <ele>97.685316</ele>
        <time>2026-04-12T10:12:38.000Z</time>
      </trkpt>
      <trkpt lat="51.420805" lon="-1.345218">
        <ele>95.460493</ele>
        <time>2026-04-12T10:13:06.000Z</time>
      </trkpt>
      <trkpt lat="51.420956" lon="-1.345973">
        <ele>92.851032</ele>
        <time>2026-04-12T10:13:37.000Z</time>
      </trkpt>
      <trkpt lat="51.420915" lon="-1.346092">
        <ele>92.398077</ele>
        <time>2026-04-12T10:13:43.000Z</time>
      </trkpt>
      <trkpt lat="51.42076" lon="-1.346216">
        <ele>91.485761</ele>
        <time>2026-04-12T10:13:55.000Z</time>
      </trkpt>
      <trkpt lat="51.420605" lon="-1.346394">
        <ele>90.479667</ele>
        <time>2026-04-12T10:14:08.000Z</time>
      </trkpt>
      <trkpt lat="51.420529" lon="-1.346559">
        <ele>89.805971</ele>
        <time>2026-04-12T10:14:15.000Z</time>
      </trkpt>
      <trkpt lat="51.420448" lon="-1.346829">
        <ele>88.81241</ele>
        <time>2026-04-12T10:14:26.000Z</time>
      </trkpt>
      <trkpt lat="51.420389" lon="-1.34707">
        <ele>87.953534</ele>
        <time>2026-04-12T10:14:38.000Z</time>
      </trkpt>
      <trkpt lat="51.420314" lon="-1.347475">
        <ele>86.559731</ele>
        <time>2026-04-12T10:14:57.000Z</time>
      </trkpt>
      <trkpt lat="51.420358" lon="-1.347571">
        <ele>86.504601</ele>
        <time>2026-04-12T10:15:02.000Z</time>
      </trkpt>
      <trkpt lat="51.420402" lon="-1.347602">
        <ele>86.643532</ele>
        <time>2026-04-12T10:15:06.000Z</time>
      </trkpt>
      <trkpt lat="51.420561" lon="-1.347527">
        <ele>87.123852</ele>
        <time>2026-04-12T10:15:17.000Z</time>
      </trkpt>
      <trkpt lat="51.420653" lon="-1.347398">
        <ele>87.477735</ele>
        <time>2026-04-12T10:15:25.000Z</time>
      </trkpt>
      <trkpt lat="51.420828" lon="-1.347279">
        <ele>88.027741</ele>
        <time>2026-04-12T10:15:41.000Z</time>
      </trkpt>
      <trkpt lat="51.42104" lon="-1.347174">
        <ele>88.669162</ele>
        <time>2026-04-12T10:15:55.000Z</time>
      </trkpt>
      <trkpt lat="51.421259" lon="-1.34696">
        <ele>89.415696</ele>
        <time>2026-04-12T10:16:19.000Z</time>
      </trkpt>
      <trkpt lat="51.421364" lon="-1.346944">
        <ele>89.721547</ele>
        <time>2026-04-12T10:16:26.000Z</time>
      </trkpt>
      <trkpt lat="51.421545" lon="-1.346856">
        <ele>90.271502</ele>
        <time>2026-04-12T10:16:41.000Z</time>
      </trkpt>
      <trkpt lat="51.421622" lon="-1.346754">
        <ele>90.560217</ele>
        <time>2026-04-12T10:16:47.000Z</time>
      </trkpt>
      <trkpt lat="51.421727" lon="-1.346686">
        <ele>90.888253</ele>
        <time>2026-04-12T10:16:53.000Z</time>
      </trkpt>
      <trkpt lat="51.421882" lon="-1.346472">
        <ele>91.483702</ele>
        <time>2026-04-12T10:17:12.000Z</time>
      </trkpt>
      <trkpt lat="51.42224" lon="-1.346423">
        <ele>93.640058</ele>
        <time>2026-04-12T10:17:43.000Z</time>
      </trkpt>
      <trkpt lat="51.422352" lon="-1.346459">
        <ele>94.369376</ele>
        <time>2026-04-12T10:17:54.000Z</time>
      </trkpt>
      <trkpt lat="51.422604" lon="-1.346441">
        <ele>95.973472</ele>
        <time>2026-04-12T10:18:21.000Z</time>
      </trkpt>
      <trkpt lat="51.422729" lon="-1.346419">
        <ele>96.767726</ele>
        <time>2026-04-12T10:18:26.000Z</time>
      </trkpt>
      <trkpt lat="51.42284" lon="-1.346441">
        <ele>97.474149</ele>
        <time>2026-04-12T10:18:34.000Z</time>
      </trkpt>
      <trkpt lat="51.422928" lon="-1.346511">
        <ele>98.094586</ele>
        <time>2026-04-12T10:18:41.000Z</time>
      </trkpt>
      <trkpt lat="51.423008" lon="-1.346628">
        <ele>98.778443</ele>
        <time>2026-04-12T10:18:48.000Z</time>
      </trkpt>
      <trkpt lat="51.423045" lon="-1.346819">
        <ele>99.575883</ele>
        <time>2026-04-12T10:18:55.000Z</time>
      </trkpt>
      <trkpt lat="51.423169" lon="-1.347274">
        <ele>101.546401</ele>
        <time>2026-04-12T10:19:16.000Z</time>
      </trkpt>
      <trkpt lat="51.423325" lon="-1.347488">
        <ele>102.84305</ele>
        <time>2026-04-12T10:19:30.000Z</time>
      </trkpt>
      <trkpt lat="51.423416" lon="-1.347659">
        <ele>102.942239</ele>
        <time>2026-04-12T10:19:39.000Z</time>
      </trkpt>
      <trkpt lat="51.42361" lon="-1.347849">
        <ele>102.940006</ele>
        <time>2026-04-12T10:19:54.000Z</time>
      </trkpt>
      <trkpt lat="51.423711" lon="-1.347851">
        <ele>102.939001</ele>
        <time>2026-04-12T10:20:01.000Z</time>
      </trkpt>
      <trkpt lat="51.423801" lon="-1.347911">
        <ele>102.938045</ele>
        <time>2026-04-12T10:20:09.000Z</time>
      </trkpt>
      <trkpt lat="51.424153" lon="-1.347824">
        <ele>102.934543</ele>
        <time>2026-04-12T10:20:36.000Z</time>
      </trkpt>
      <trkpt lat="51.424174" lon="-1.347798">
        <ele>102.934283</ele>
        <time>2026-04-12T10:20:38.000Z</time>
      </trkpt>
      <trkpt lat="51.424642" lon="-1.347789">
        <ele>102.929685</ele>
        <time>2026-04-12T10:21:06.000Z</time>
      </trkpt>
      <trkpt lat="51.424763" lon="-1.347857">
        <ele>102.928427</ele>
        <time>2026-04-12T10:21:16.000Z</time>
      </trkpt>
      <trkpt lat="51.424978" lon="-1.347882">
        <ele>102.926309</ele>
        <time>2026-04-12T10:21:30.000Z</time>
      </trkpt>
      <trkpt lat="51.425273" lon="-1.347978">
        <ele>103.261592</ele>
        <time>2026-04-12T10:21:54.000Z</time>
      </trkpt>
      <trkpt lat="51.425948" lon="-1.347971">
        <ele>104.166728</ele>
        <time>2026-04-12T10:22:35.000Z</time>
      </trkpt>
      <trkpt lat="51.426005" lon="-1.348028">
        <ele>104.256821</ele>
        <time>2026-04-12T10:22:41.000Z</time>
      </trkpt>
      <trkpt lat="51.426125" lon="-1.348079">
        <ele>104.423306</ele>
        <time>2026-04-12T10:22:50.000Z</time>
      </trkpt>
      <trkpt lat="51.426323" lon="-1.348079">
        <ele>104.688362</ele>
        <time>2026-04-12T10:23:00.000Z</time>
      </trkpt>
      <trkpt lat="51.426458" lon="-1.348128">
        <ele>104.873788</ele>
        <time>2026-04-12T10:23:14.000Z</time>
      </trkpt>
      <trkpt lat="51.426631" lon="-1.348146">
        <ele>105.10586</ele>
        <time>2026-04-12T10:23:24.000Z</time>
      </trkpt>
      <trkpt lat="51.426794" lon="-1.348152">
        <ele>105.324432</ele>
        <time>2026-04-12T10:23:45.000Z</time>
      </trkpt>
      <trkpt lat="51.427183" lon="-1.348095">
        <ele>105.304856</ele>
        <time>2026-04-12T10:24:19.000Z</time>
      </trkpt>
      <trkpt lat="51.427354" lon="-1.348117">
        <ele>105.292049</ele>
        <time>2026-04-12T10:24:32.000Z</time>
      </trkpt>
      <trkpt lat="51.427631" lon="-1.348068">
        <ele>105.271317</ele>
        <time>2026-04-12T10:24:50.000Z</time>
      </trkpt>
      <trkpt lat="51.42776" lon="-1.347989">
        <ele>105.261077</ele>
        <time>2026-04-12T10:25:00.000Z</time>
      </trkpt>
      <trkpt lat="51.427864" lon="-1.347873">
        <ele>105.251682</ele>
        <time>2026-04-12T10:25:08.000Z</time>
      </trkpt>
      <trkpt lat="51.428039" lon="-1.347596">
        <ele>105.233352</ele>
        <time>2026-04-12T10:25:23.000Z</time>
      </trkpt>
      <trkpt lat="51.428203" lon="-1.347475">
        <ele>105.219909</ele>
        <time>2026-04-12T10:25:34.000Z</time>
      </trkpt>
      <trkpt lat="51.428484" lon="-1.347046">
        <ele>105.820588</ele>
        <time>2026-04-12T10:25:58.000Z</time>
      </trkpt>
      <trkpt lat="51.428786" lon="-1.34674">
        <ele>107.668775</ele>
        <time>2026-04-12T10:26:23.000Z</time>
      </trkpt>
      <trkpt lat="51.42889" lon="-1.346603">
        <ele>108.361656</ele>
        <time>2026-04-12T10:26:30.000Z</time>
      </trkpt>
      <trkpt lat="51.428976" lon="-1.346441">
        <ele>109.044865</ele>
        <time>2026-04-12T10:26:40.000Z</time>
      </trkpt>
      <trkpt lat="51.429387" lon="-1.345835">
        <ele>111.937464</ele>
        <time>2026-04-12T10:27:18.000Z</time>
      </trkpt>
      <trkpt lat="51.429593" lon="-1.34573">
        <ele>113.059632</ele>
        <time>2026-04-12T10:27:33.000Z</time>
      </trkpt>
      <trkpt lat="51.42966" lon="-1.345655">
        <ele>113.480282</ele>
        <time>2026-04-12T10:27:38.000Z</time>
      </trkpt>
      <trkpt lat="51.429872" lon="-1.345562">
        <ele>114.426847</ele>
        <time>2026-04-12T10:27:51.000Z</time>
      </trkpt>
      <trkpt lat="51.430009" lon="-1.345442">
        <ele>114.253587</ele>
        <time>2026-04-12T10:28:00.000Z</time>
      </trkpt>
      <trkpt lat="51.430154" lon="-1.345385">
        <ele>114.087542</ele>
        <time>2026-04-12T10:28:14.000Z</time>
      </trkpt>
      <trkpt lat="51.430106" lon="-1.345346">
        <ele>114.028086</ele>
        <time>2026-04-12T10:28:18.000Z</time>
      </trkpt>
      <trkpt lat="51.430227" lon="-1.345278">
        <ele>113.886422</ele>
        <time>2026-04-12T10:28:32.000Z</time>
      </trkpt>
      <trkpt lat="51.430547" lon="-1.345235">
        <ele>113.531614</ele>
        <time>2026-04-12T10:28:45.000Z</time>
      </trkpt>
      <trkpt lat="51.430744" lon="-1.345133">
        <ele>113.302853</ele>
        <time>2026-04-12T10:29:00.000Z</time>
      </trkpt>
      <trkpt lat="51.430786" lon="-1.345084">
        <ele>113.245347</ele>
        <time>2026-04-12T10:29:04.000Z</time>
      </trkpt>
      <trkpt lat="51.430862" lon="-1.345034">
        <ele>113.150246</ele>
        <time>2026-04-12T10:29:10.000Z</time>
      </trkpt>
      <trkpt lat="51.431068" lon="-1.344916">
        <ele>112.908331</ele>
        <time>2026-04-12T10:29:24.000Z</time>
      </trkpt>
      <trkpt lat="51.431142" lon="-1.34484">
        <ele>112.811302</ele>
        <time>2026-04-12T10:29:29.000Z</time>
      </trkpt>
      <trkpt lat="51.431287" lon="-1.344761">
        <ele>112.642155</ele>
        <time>2026-04-12T10:29:38.000Z</time>
      </trkpt>
      <trkpt lat="51.431482" lon="-1.34456">
        <ele>113.293131</ele>
        <time>2026-04-12T10:29:52.000Z</time>
      </trkpt>
      <trkpt lat="51.431592" lon="-1.344483">
        <ele>114.525859</ele>
        <time>2026-04-12T10:29:59.000Z</time>
      </trkpt>
      <trkpt lat="51.431718" lon="-1.344408">
        <ele>115.906259</ele>
        <time>2026-04-12T10:30:07.000Z</time>
      </trkpt>
      <trkpt lat="51.431961" lon="-1.344321">
        <ele>118.46692</ele>
        <time>2026-04-12T10:30:26.000Z</time>
      </trkpt>
      <trkpt lat="51.432174" lon="-1.344208">
        <ele>120.771857</ele>
        <time>2026-04-12T10:30:45.000Z</time>
      </trkpt>
      <trkpt lat="51.432226" lon="-1.344148">
        <ele>121.430842</ele>
        <time>2026-04-12T10:30:50.000Z</time>
      </trkpt>
      <trkpt lat="51.432307" lon="-1.344135">
        <ele>122.276233</ele>
        <time>2026-04-12T10:30:59.000Z</time>
      </trkpt>
      <trkpt lat="51.432371" lon="-1.343996">
        <ele>123.413936</ele>
        <time>2026-04-12T10:31:11.000Z</time>
      </trkpt>
      <trkpt lat="51.432674" lon="-1.343674">
        <ele>127.157102</ele>
        <time>2026-04-12T10:31:37.000Z</time>
      </trkpt>
      <trkpt lat="51.432739" lon="-1.343616">
        <ele>127.921075</ele>
        <time>2026-04-12T10:31:44.000Z</time>
      </trkpt>
      <trkpt lat="51.432888" lon="-1.343563">
        <ele>129.489625</ele>
        <time>2026-04-12T10:31:57.000Z</time>
      </trkpt>
      <trkpt lat="51.432979" lon="-1.343458">
        <ele>130.645656</ele>
        <time>2026-04-12T10:32:06.000Z</time>
      </trkpt>
      <trkpt lat="51.432956" lon="-1.34316">
        <ele>131.572815</ele>
        <time>2026-04-12T10:32:28.000Z</time>
      </trkpt>
      <trkpt lat="51.433021" lon="-1.343111">
        <ele>131.853809</ele>
        <time>2026-04-12T10:32:36.000Z</time>
      </trkpt>
      <trkpt lat="51.433137" lon="-1.342874">
        <ele>132.592776</ele>
        <time>2026-04-12T10:32:52.000Z</time>
      </trkpt>
      <trkpt lat="51.433461" lon="-1.342453">
        <ele>134.221474</ele>
        <time>2026-04-12T10:33:21.000Z</time>
      </trkpt>
      <trkpt lat="51.433473" lon="-1.342335">
        <ele>134.523852</ele>
        <time>2026-04-12T10:33:43.000Z</time>
      </trkpt>
      <trkpt lat="51.43349" lon="-1.342356">
        <ele>134.631045</ele>
        <time>2026-04-12T10:35:29.000Z</time>
      </trkpt>
      <trkpt lat="51.433648" lon="-1.342317">
        <ele>135.255438</ele>
        <time>2026-04-12T10:35:51.000Z</time>
      </trkpt>
      <trkpt lat="51.433772" lon="-1.342362">
        <ele>135.751959</ele>
        <time>2026-04-12T10:36:00.000Z</time>
      </trkpt>
      <trkpt lat="51.434177" lon="-1.34219">
        <ele>137.391269</ele>
        <time>2026-04-12T10:36:28.000Z</time>
      </trkpt>
      <trkpt lat="51.434333" lon="-1.342212">
        <ele>137.953523</ele>
        <time>2026-04-12T10:36:40.000Z</time>
      </trkpt>
      <trkpt lat="51.434494" lon="-1.342632">
        <ele>137.449341</ele>
        <time>2026-04-12T10:37:03.000Z</time>
      </trkpt>
      <trkpt lat="51.435164" lon="-1.343297">
        <ele>136.162488</ele>
        <time>2026-04-12T10:37:55.000Z</time>
      </trkpt>
      <trkpt lat="51.435247" lon="-1.34342">
        <ele>135.978107</ele>
        <time>2026-04-12T10:38:03.000Z</time>
      </trkpt>
      <trkpt lat="51.43534" lon="-1.343718">
        <ele>135.638756</ele>
        <time>2026-04-12T10:38:18.000Z</time>
      </trkpt>
      <trkpt lat="51.435347" lon="-1.343861">
        <ele>135.492847</ele>
        <time>2026-04-12T10:38:25.000Z</time>
      </trkpt>
      <trkpt lat="51.435408" lon="-1.344052">
        <ele>135.27368</ele>
        <time>2026-04-12T10:38:35.000Z</time>
      </trkpt>
      <trkpt lat="51.435489" lon="-1.344194">
        <ele>135.076585</ele>
        <time>2026-04-12T10:38:44.000Z</time>
      </trkpt>
      <trkpt lat="51.435521" lon="-1.344319">
        <ele>135.19978</ele>
        <time>2026-04-12T10:38:50.000Z</time>
      </trkpt>
      <trkpt lat="51.435602" lon="-1.344485">
        <ele>135.563674</ele>
        <time>2026-04-12T10:38:59.000Z</time>
      </trkpt>
      <trkpt lat="51.435653" lon="-1.344544">
        <ele>135.736034</ele>
        <time>2026-04-12T10:39:04.000Z</time>
      </trkpt>
      <trkpt lat="51.435745" lon="-1.344739">
        <ele>136.151326</ele>
        <time>2026-04-12T10:39:18.000Z</time>
      </trkpt>
      <trkpt lat="51.435815" lon="-1.344806">
        <ele>136.376862</ele>
        <time>2026-04-12T10:39:23.000Z</time>
      </trkpt>
      <trkpt lat="51.435865" lon="-1.344671">
        <ele>136.651755</ele>
        <time>2026-04-12T10:39:30.000Z</time>
      </trkpt>
      <trkpt lat="51.435945" lon="-1.344327">
        <ele>137.275526</ele>
        <time>2026-04-12T10:39:48.000Z</time>
      </trkpt>
      <trkpt lat="51.436023" lon="-1.343871">
        <ele>138.08117</ele>
        <time>2026-04-12T10:40:09.000Z</time>
      </trkpt>
      <trkpt lat="51.436145" lon="-1.343427">
        <ele>138.907653</ele>
        <time>2026-04-12T10:40:35.000Z</time>
      </trkpt>
      <trkpt lat="51.436137" lon="-1.343367">
        <ele>139.012043</ele>
        <time>2026-04-12T10:40:55.000Z</time>
      </trkpt>
      <trkpt lat="51.436198" lon="-1.343068">
        <ele>139.560278</ele>
        <time>2026-04-12T10:41:45.000Z</time>
      </trkpt>
      <trkpt lat="51.436306" lon="-1.342954">
        <ele>139.912357</ele>
        <time>2026-04-12T10:41:55.000Z</time>
      </trkpt>
      <trkpt lat="51.436576" lon="-1.342524">
        <ele>138.898305</ele>
        <time>2026-04-12T10:42:27.000Z</time>
      </trkpt>
      <trkpt lat="51.436766" lon="-1.342297">
        <ele>138.241775</ele>
        <time>2026-04-12T10:42:43.000Z</time>
      </trkpt>
      <trkpt lat="51.437174" lon="-1.341876">
        <ele>136.900902</ele>
        <time>2026-04-12T10:43:20.000Z</time>
      </trkpt>
      <trkpt lat="51.437298" lon="-1.341831">
        <ele>136.549337</ele>
        <time>2026-04-12T10:43:29.000Z</time>
      </trkpt>
      <trkpt lat="51.437366" lon="-1.341759">
        <ele>136.324013</ele>
        <time>2026-04-12T10:43:35.000Z</time>
      </trkpt>
      <trkpt lat="51.437515" lon="-1.341688">
        <ele>135.889299</ele>
        <time>2026-04-12T10:43:48.000Z</time>
      </trkpt>
      <trkpt lat="51.437739" lon="-1.341492">
        <ele>135.185582</ele>
        <time>2026-04-12T10:44:03.000Z</time>
      </trkpt>
      <trkpt lat="51.437967" lon="-1.341404">
        <ele>133.701392</ele>
        <time>2026-04-12T10:44:22.000Z</time>
      </trkpt>
      <trkpt lat="51.438351" lon="-1.341377">
        <ele>130.605467</ele>
        <time>2026-04-12T10:44:49.000Z</time>
      </trkpt>
      <trkpt lat="51.438567" lon="-1.34129">
        <ele>128.799272</ele>
        <time>2026-04-12T10:45:14.000Z</time>
      </trkpt>
      <trkpt lat="51.438783" lon="-1.341037">
        <ele>126.642458</ele>
        <time>2026-04-12T10:45:36.000Z</time>
      </trkpt>
      <trkpt lat="51.438974" lon="-1.34074">
        <ele>124.502215</ele>
        <time>2026-04-12T10:45:55.000Z</time>
      </trkpt>
      <trkpt lat="51.439054" lon="-1.340582">
        <ele>123.469476</ele>
        <time>2026-04-12T10:46:06.000Z</time>
      </trkpt>
      <trkpt lat="51.439096" lon="-1.340425">
        <ele>122.527141</ele>
        <time>2026-04-12T10:47:06.000Z</time>
      </trkpt>
      <trkpt lat="51.4392" lon="-1.340216">
        <ele>121.186292</ele>
        <time>2026-04-12T10:47:30.000Z</time>
      </trkpt>
      <trkpt lat="51.439244" lon="-1.340077">
        <ele>120.767931</ele>
        <time>2026-04-12T10:47:38.000Z</time>
      </trkpt>
      <trkpt lat="51.439317" lon="-1.339986">
        <ele>121.870258</ele>
        <time>2026-04-12T10:47:46.000Z</time>
      </trkpt>
      <trkpt lat="51.439387" lon="-1.33996">
        <ele>122.726999</ele>
        <time>2026-04-12T10:47:53.000Z</time>
      </trkpt>
      <trkpt lat="51.439448" lon="-1.339991">
        <ele>123.48997</ele>
        <time>2026-04-12T10:47:59.000Z</time>
      </trkpt>
      <trkpt lat="51.439824" lon="-1.339963">
        <ele>128.00256</ele>
        <time>2026-04-12T10:48:31.000Z</time>
      </trkpt>
      <trkpt lat="51.439977" lon="-1.339922">
        <ele>129.855674</ele>
        <time>2026-04-12T10:48:46.000Z</time>
      </trkpt>
      <trkpt lat="51.440164" lon="-1.339991">
        <ele>132.184374</ele>
        <time>2026-04-12T10:49:00.000Z</time>
      </trkpt>
      <trkpt lat="51.440241" lon="-1.339977">
        <ele>133.108702</ele>
        <time>2026-04-12T10:49:07.000Z</time>
      </trkpt>
      <trkpt lat="51.44036" lon="-1.340034">
        <ele>134.607714</ele>
        <time>2026-04-12T10:49:19.000Z</time>
      </trkpt>
      <trkpt lat="51.440459" lon="-1.340035">
        <ele>135.794255</ele>
        <time>2026-04-12T10:49:31.000Z</time>
      </trkpt>
      <trkpt lat="51.440623" lon="-1.339963">
        <ele>137.831438</ele>
        <time>2026-04-12T10:49:52.000Z</time>
      </trkpt>
      <trkpt lat="51.440716" lon="-1.339959">
        <ele>138.941944</ele>
        <time>2026-04-12T10:50:01.000Z</time>
      </trkpt>
      <trkpt lat="51.440788" lon="-1.339903">
        <ele>139.896048</ele>
        <time>2026-04-12T10:50:07.000Z</time>
      </trkpt>
      <trkpt lat="51.44095" lon="-1.339725">
        <ele>142.03824</ele>
        <time>2026-04-12T10:50:21.000Z</time>
      </trkpt>
      <trkpt lat="51.441063" lon="-1.339483">
        <ele>142.39805</ele>
        <time>2026-04-12T10:50:34.000Z</time>
      </trkpt>
      <trkpt lat="51.441307" lon="-1.339269">
        <ele>142.927093</ele>
        <time>2026-04-12T10:50:56.000Z</time>
      </trkpt>
      <trkpt lat="51.44144" lon="-1.339116">
        <ele>143.23809</ele>
        <time>2026-04-12T10:51:08.000Z</time>
      </trkpt>
      <trkpt lat="51.44148" lon="-1.339047">
        <ele>143.349539</ele>
        <time>2026-04-12T10:51:11.000Z</time>
      </trkpt>
      <trkpt lat="51.441513" lon="-1.338835">
        <ele>143.607986</ele>
        <time>2026-04-12T10:51:21.000Z</time>
      </trkpt>
      <trkpt lat="51.441598" lon="-1.338567">
        <ele>143.964439</ele>
        <time>2026-04-12T10:51:36.000Z</time>
      </trkpt>
      <trkpt lat="51.44174" lon="-1.338394">
        <ele>144.30477</ele>
        <time>2026-04-12T10:51:51.000Z</time>
      </trkpt>
      <trkpt lat="51.441912" lon="-1.337958">
        <ele>144.918168</ele>
        <time>2026-04-12T10:52:15.000Z</time>
      </trkpt>
      <trkpt lat="51.442042" lon="-1.337741">
        <ele>145.274547</ele>
        <time>2026-04-12T10:52:29.000Z</time>
      </trkpt>
      <trkpt lat="51.442177" lon="-1.337457">
        <ele>145.481935</ele>
        <time>2026-04-12T10:52:43.000Z</time>
      </trkpt>
      <trkpt lat="51.442528" lon="-1.336869">
        <ele>145.720087</ele>
        <time>2026-04-12T10:53:21.000Z</time>
      </trkpt>
      <trkpt lat="51.442761" lon="-1.336719">
        <ele>145.838187</ele>
        <time>2026-04-12T10:53:39.000Z</time>
      </trkpt>
      <trkpt lat="51.442835" lon="-1.336554">
        <ele>145.897813</ele>
        <time>2026-04-12T10:53:48.000Z</time>
      </trkpt>
      <trkpt lat="51.442865" lon="-1.33636">
        <ele>145.956105</ele>
        <time>2026-04-12T10:53:56.000Z</time>
      </trkpt>
      <trkpt lat="51.442837" lon="-1.336193">
        <ele>146.006538</ele>
        <time>2026-04-12T10:54:04.000Z</time>
      </trkpt>
      <trkpt lat="51.442679" lon="-1.335992">
        <ele>146.101255</ele>
        <time>2026-04-12T10:54:18.000Z</time>
      </trkpt>
      <trkpt lat="51.442577" lon="-1.335687">
        <ele>146.202811</ele>
        <time>2026-04-12T10:54:34.000Z</time>
      </trkpt>
      <trkpt lat="51.442411" lon="-1.335383">
        <ele>146.501243</ele>
        <time>2026-04-12T10:54:53.000Z</time>
      </trkpt>
      <trkpt lat="51.442253" lon="-1.335223">
        <ele>146.821707</ele>
        <time>2026-04-12T10:55:04.000Z</time>
      </trkpt>
      <trkpt lat="51.442219" lon="-1.335115">
        <ele>146.950127</ele>
        <time>2026-04-12T10:55:09.000Z</time>
      </trkpt>
      <trkpt lat="51.441962" lon="-1.334743">
        <ele>147.540041</ele>
        <time>2026-04-12T10:55:34.000Z</time>
      </trkpt>
      <trkpt lat="51.441705" lon="-1.334511">
        <ele>148.043167</ele>
        <time>2026-04-12T10:55:54.000Z</time>
      </trkpt>
      <trkpt lat="51.441571" lon="-1.334431">
        <ele>148.290802</ele>
        <time>2026-04-12T10:56:04.000Z</time>
      </trkpt>
      <trkpt lat="51.441516" lon="-1.334456">
        <ele>148.388127</ele>
        <time>2026-04-12T10:56:08.000Z</time>
      </trkpt>
      <trkpt lat="51.441494" lon="-1.334728">
        <ele>148.680958</ele>
        <time>2026-04-12T10:56:22.000Z</time>
      </trkpt>
      <trkpt lat="51.44142" lon="-1.334842">
        <ele>148.855711</ele>
        <time>2026-04-12T10:56:29.000Z</time>
      </trkpt>
      <trkpt lat="51.441207" lon="-1.33485">
        <ele>149.222904</ele>
        <time>2026-04-12T10:56:45.000Z</time>
      </trkpt>
      <trkpt lat="51.441055" lon="-1.334764">
        <ele>149.394142</ele>
        <time>2026-04-12T10:56:57.000Z</time>
      </trkpt>
      <trkpt lat="51.440936" lon="-1.334768">
        <ele>149.48196</ele>
        <time>2026-04-12T10:57:05.000Z</time>
      </trkpt>
      <trkpt lat="51.440841" lon="-1.334818">
        <ele>149.555757</ele>
        <time>2026-04-12T10:57:14.000Z</time>
      </trkpt>
      <trkpt lat="51.440686" lon="-1.33481">
        <ele>149.670299</ele>
        <time>2026-04-12T10:57:33.000Z</time>
      </trkpt>
      <trkpt lat="51.440509" lon="-1.334903">
        <ele>149.808058</ele>
        <time>2026-04-12T10:57:46.000Z</time>
      </trkpt>
      <trkpt lat="51.440368" lon="-1.334901">
        <ele>149.912952</ele>
        <time>2026-04-12T10:57:58.000Z</time>
      </trkpt>
      <trkpt lat="51.44027" lon="-1.33497">
        <ele>149.991914</ele>
        <time>2026-04-12T10:58:06.000Z</time>
      </trkpt>
      <trkpt lat="51.440213" lon="-1.335114">
        <ele>150.070363</ele>
        <time>2026-04-12T10:58:14.000Z</time>
      </trkpt>
      <trkpt lat="51.440045" lon="-1.335177">
        <ele>150.198458</ele>
        <time>2026-04-12T10:58:27.000Z</time>
      </trkpt>
      <trkpt lat="51.440011" lon="-1.335256">
        <ele>150.242608</ele>
        <time>2026-04-12T10:58:31.000Z</time>
      </trkpt>
      <trkpt lat="51.439898" lon="-1.335341">
        <ele>150.334689</ele>
        <time>2026-04-12T10:58:39.000Z</time>
      </trkpt>
      <trkpt lat="51.439595" lon="-1.335292">
        <ele>150.56137</ele>
        <time>2026-04-12T10:58:59.000Z</time>
      </trkpt>
      <trkpt lat="51.439539" lon="-1.335356">
        <ele>150.612411</ele>
        <time>2026-04-12T10:59:05.000Z</time>
      </trkpt>
      <trkpt lat="51.439323" lon="-1.335368">
        <ele>150.003655</ele>
        <time>2026-04-12T10:59:22.000Z</time>
      </trkpt>
      <trkpt lat="51.439122" lon="-1.335262">
        <ele>149.237499</ele>
        <time>2026-04-12T10:59:38.000Z</time>
      </trkpt>
      <trkpt lat="51.43889" lon="-1.33523">
        <ele>148.395378</ele>
        <time>2026-04-12T10:59:54.000Z</time>
      </trkpt>
      <trkpt lat="51.438784" lon="-1.335158">
        <ele>147.979086</ele>
        <time>2026-04-12T11:00:02.000Z</time>
      </trkpt>
      <trkpt lat="51.438591" lon="-1.33516">
        <ele>147.280671</ele>
        <time>2026-04-12T11:00:15.000Z</time>
      </trkpt>
      <trkpt lat="51.438566" lon="-1.335199">
        <ele>147.154559</ele>
        <time>2026-04-12T11:00:17.000Z</time>
      </trkpt>
      <trkpt lat="51.438571" lon="-1.335224">
        <ele>147.095371</ele>
        <time>2026-04-12T11:00:18.000Z</time>
      </trkpt>
      <trkpt lat="51.438699" lon="-1.335567">
        <ele>146.194119</ele>
        <time>2026-04-12T11:00:35.000Z</time>
      </trkpt>
      <trkpt lat="51.43878" lon="-1.335724">
        <ele>145.73455</ele>
        <time>2026-04-12T11:00:44.000Z</time>
      </trkpt>
      <trkpt lat="51.438784" lon="-1.335801">
        <ele>145.535862</ele>
        <time>2026-04-12T11:00:50.000Z</time>
      </trkpt>
      <trkpt lat="51.438719" lon="-1.335857">
        <ele>145.269037</ele>
        <time>2026-04-12T11:00:58.000Z</time>
      </trkpt>
      <trkpt lat="51.43839" lon="-1.335863">
        <ele>144.131681</ele>
        <time>2026-04-12T11:01:25.000Z</time>
      </trkpt>
      <trkpt lat="51.437899" lon="-1.33597">
        <ele>143.959055</ele>
        <time>2026-04-12T11:01:59.000Z</time>
      </trkpt>
      <trkpt lat="51.437623" lon="-1.33594">
        <ele>143.862503</ele>
        <time>2026-04-12T11:02:17.000Z</time>
      </trkpt>
      <trkpt lat="51.437403" lon="-1.33596">
        <ele>143.785751</ele>
        <time>2026-04-12T11:02:33.000Z</time>
      </trkpt>
      <trkpt lat="51.437314" lon="-1.335913">
        <ele>143.753125</ele>
        <time>2026-04-12T11:02:40.000Z</time>
      </trkpt>
      <trkpt lat="51.437254" lon="-1.335848">
        <ele>143.727915</ele>
        <time>2026-04-12T11:02:46.000Z</time>
      </trkpt>
      <trkpt lat="51.437201" lon="-1.335665">
        <ele>143.68397</ele>
        <time>2026-04-12T11:02:56.000Z</time>
      </trkpt>
      <trkpt lat="51.437134" lon="-1.335539">
        <ele>143.642949</ele>
        <time>2026-04-12T11:03:17.000Z</time>
      </trkpt>
      <trkpt lat="51.43713" lon="-1.335607">
        <ele>143.626633</ele>
        <time>2026-04-12T11:03:31.000Z</time>
      </trkpt>
      <trkpt lat="51.437108" lon="-1.33544">
        <ele>143.589174</ele>
        <time>2026-04-12T11:03:41.000Z</time>
      </trkpt>
      <trkpt lat="51.437047" lon="-1.335326">
        <ele>143.556563</ele>
        <time>2026-04-12T11:03:49.000Z</time>
      </trkpt>
      <trkpt lat="51.436905" lon="-1.335266">
        <ele>143.525473</ele>
        <time>2026-04-12T11:04:02.000Z</time>
      </trkpt>
      <trkpt lat="51.436805" lon="-1.335104">
        <ele>143.640849</ele>
        <time>2026-04-12T11:04:12.000Z</time>
      </trkpt>
      <trkpt lat="51.436765" lon="-1.335075">
        <ele>143.676298</ele>
        <time>2026-04-12T11:04:15.000Z</time>
      </trkpt>
      <trkpt lat="51.436511" lon="-1.335016">
        <ele>143.885194</ele>
        <time>2026-04-12T11:04:42.000Z</time>
      </trkpt>
      <trkpt lat="51.436454" lon="-1.335149">
        <ele>143.967279</ele>
        <time>2026-04-12T11:04:51.000Z</time>
      </trkpt>
      <trkpt lat="51.436248" lon="-1.335196">
        <ele>144.135662</ele>
        <time>2026-04-12T11:05:06.000Z</time>
      </trkpt>
      <trkpt lat="51.436083" lon="-1.335363">
        <ele>144.296138</ele>
        <time>2026-04-12T11:05:22.000Z</time>
      </trkpt>
      <trkpt lat="51.436011" lon="-1.33546">
        <ele>144.37207</ele>
        <time>2026-04-12T11:05:29.000Z</time>
      </trkpt>
      <trkpt lat="51.435947" lon="-1.335664">
        <ele>144.48707</ele>
        <time>2026-04-12T11:05:39.000Z</time>
      </trkpt>
      <trkpt lat="51.435837" lon="-1.335838">
        <ele>144.611883</ele>
        <time>2026-04-12T11:05:50.000Z</time>
      </trkpt>
      <trkpt lat="51.435762" lon="-1.335859">
        <ele>144.673417</ele>
        <time>2026-04-12T11:05:56.000Z</time>
      </trkpt>
      <trkpt lat="51.435678" lon="-1.335936">
        <ele>144.753436</ele>
        <time>2026-04-12T11:06:04.000Z</time>
      </trkpt>
      <trkpt lat="51.435589" lon="-1.335974">
        <ele>144.828771</ele>
        <time>2026-04-12T11:06:12.000Z</time>
      </trkpt>
      <trkpt lat="51.435512" lon="-1.3362">
        <ele>144.958996</ele>
        <time>2026-04-12T11:06:29.000Z</time>
      </trkpt>
      <trkpt lat="51.435442" lon="-1.33654">
        <ele>144.488974</ele>
        <time>2026-04-12T11:06:44.000Z</time>
      </trkpt>
      <trkpt lat="51.435162" lon="-1.336872">
        <ele>143.729094</ele>
        <time>2026-04-12T11:07:09.000Z</time>
      </trkpt>
      <trkpt lat="51.434832" lon="-1.337081">
        <ele>142.954812</ele>
        <time>2026-04-12T11:07:36.000Z</time>
      </trkpt>
      <trkpt lat="51.434377" lon="-1.337502">
        <ele>141.802532</ele>
        <time>2026-04-12T11:08:08.000Z</time>
      </trkpt>
      <trkpt lat="51.434263" lon="-1.33758">
        <ele>141.532121</ele>
        <time>2026-04-12T11:08:16.000Z</time>
      </trkpt>
      <trkpt lat="51.434034" lon="-1.337838">
        <ele>140.933617</ele>
        <time>2026-04-12T11:08:37.000Z</time>
      </trkpt>
      <trkpt lat="51.433527" lon="-1.338388">
        <ele>139.755395</ele>
        <time>2026-04-12T11:09:20.000Z</time>
      </trkpt>
      <trkpt lat="51.433035" lon="-1.338772">
        <ele>138.701793</ele>
        <time>2026-04-12T11:09:57.000Z</time>
      </trkpt>
      <trkpt lat="51.432859" lon="-1.338879">
        <ele>138.339204</ele>
        <time>2026-04-12T11:10:10.000Z</time>
      </trkpt>
      <trkpt lat="51.432717" lon="-1.338926">
        <ele>138.060185</ele>
        <time>2026-04-12T11:10:20.000Z</time>
      </trkpt>
      <trkpt lat="51.432343" lon="-1.338964">
        <ele>137.704698</ele>
        <time>2026-04-12T11:10:46.000Z</time>
      </trkpt>
      <trkpt lat="51.431785" lon="-1.339356">
        <ele>138.325105</ele>
        <time>2026-04-12T11:11:27.000Z</time>
      </trkpt>
      <trkpt lat="51.431532" lon="-1.339471">
        <ele>138.592582</ele>
        <time>2026-04-12T11:11:46.000Z</time>
      </trkpt>
      <trkpt lat="51.431406" lon="-1.339558">
        <ele>138.731936</ele>
        <time>2026-04-12T11:11:55.000Z</time>
      </trkpt>
      <trkpt lat="51.431121" lon="-1.339603">
        <ele>139.023489</ele>
        <time>2026-04-12T11:12:15.000Z</time>
      </trkpt>
      <trkpt lat="51.430914" lon="-1.33968">
        <ele>139.239728</ele>
        <time>2026-04-12T11:12:31.000Z</time>
      </trkpt>
      <trkpt lat="51.430832" lon="-1.339762">
        <ele>139.339039</ele>
        <time>2026-04-12T11:12:38.000Z</time>
      </trkpt>
      <trkpt lat="51.430811" lon="-1.339858">
        <ele>139.403472</ele>
        <time>2026-04-12T11:12:44.000Z</time>
      </trkpt>
      <trkpt lat="51.430531" lon="-1.340182">
        <ele>138.47254</ele>
        <time>2026-04-12T11:13:14.000Z</time>
      </trkpt>
      <trkpt lat="51.430444" lon="-1.340098">
        <ele>138.198598</ele>
        <time>2026-04-12T11:13:22.000Z</time>
      </trkpt>
      <trkpt lat="51.430326" lon="-1.340039">
        <ele>137.865179</ele>
        <time>2026-04-12T11:13:31.000Z</time>
      </trkpt>
      <trkpt lat="51.430205" lon="-1.34006">
        <ele>137.536869</ele>
        <time>2026-04-12T11:13:39.000Z</time>
      </trkpt>
      <trkpt lat="51.430084" lon="-1.340094">
        <ele>137.205493</ele>
        <time>2026-04-12T11:13:47.000Z</time>
      </trkpt>
      <trkpt lat="51.428708" lon="-1.340729">
        <ele>134.241522</ele>
        <time>2026-04-12T11:15:27.000Z</time>
      </trkpt>
      <trkpt lat="51.428138" lon="-1.340916">
        <ele>133.84017</ele>
        <time>2026-04-12T11:16:08.000Z</time>
      </trkpt>
      <trkpt lat="51.427041" lon="-1.341243">
        <ele>131.84114</ele>
        <time>2026-04-12T11:17:25.000Z</time>
      </trkpt>
      <trkpt lat="51.426854" lon="-1.341276">
        <ele>131.050778</ele>
        <time>2026-04-12T11:17:39.000Z</time>
      </trkpt>
      <trkpt lat="51.426602" lon="-1.341242">
        <ele>129.987348</ele>
        <time>2026-04-12T11:17:57.000Z</time>
      </trkpt>
      <trkpt lat="51.426402" lon="-1.341257">
        <ele>129.145953</ele>
        <time>2026-04-12T11:18:14.000Z</time>
      </trkpt>
      <trkpt lat="51.426308" lon="-1.341322">
        <ele>128.715245</ele>
        <time>2026-04-12T11:18:25.000Z</time>
      </trkpt>
      <trkpt lat="51.425877" lon="-1.341957">
        <ele>126.253568</ele>
        <time>2026-04-12T11:19:06.000Z</time>
      </trkpt>
      <trkpt lat="51.425329" lon="-1.342603">
        <ele>123.690356</ele>
        <time>2026-04-12T11:19:53.000Z</time>
      </trkpt>
      <trkpt lat="51.425038" lon="-1.342867">
        <ele>122.462263</ele>
        <time>2026-04-12T11:20:17.000Z</time>
      </trkpt>
      <trkpt lat="51.424619" lon="-1.343321">
        <ele>120.601999</ele>
        <time>2026-04-12T11:20:50.000Z</time>
      </trkpt>
      <trkpt lat="51.424536" lon="-1.343391">
        <ele>120.257954</ele>
        <time>2026-04-12T11:20:56.000Z</time>
      </trkpt>
      <trkpt lat="51.424451" lon="-1.343395">
        <ele>119.945975</ele>
        <time>2026-04-12T11:21:02.000Z</time>
      </trkpt>
      <trkpt lat="51.423592" lon="-1.342472">
        <ele>121.339705</ele>
        <time>2026-04-12T11:22:12.000Z</time>
      </trkpt>
      <trkpt lat="51.423485" lon="-1.342315">
        <ele>121.725929</ele>
        <time>2026-04-12T11:22:22.000Z</time>
      </trkpt>
      <trkpt lat="51.423406" lon="-1.342115">
        <ele>122.119109</ele>
        <time>2026-04-12T11:22:33.000Z</time>
      </trkpt>
      <trkpt lat="51.423374" lon="-1.341997">
        <ele>122.332789</ele>
        <time>2026-04-12T11:22:39.000Z</time>
      </trkpt>
      <trkpt lat="51.423426" lon="-1.340666">
        <ele>123.962667</ele>
        <time>2026-04-12T11:23:42.000Z</time>
      </trkpt>
      <trkpt lat="51.423374" lon="-1.340553">
        <ele>123.969192</ele>
        <time>2026-04-12T11:23:48.000Z</time>
      </trkpt>
      <trkpt lat="51.423278" lon="-1.340524">
        <ele>123.976367</ele>
        <time>2026-04-12T11:23:55.000Z</time>
      </trkpt>
      <trkpt lat="51.423025" lon="-1.340525">
        <ele>123.994791</ele>
        <time>2026-04-12T11:24:14.000Z</time>
      </trkpt>
      <trkpt lat="51.422704" lon="-1.340432">
        <ele>124.018527</ele>
        <time>2026-04-12T11:24:38.000Z</time>
      </trkpt>
      <trkpt lat="51.422395" lon="-1.340246">
        <ele>124.042619</ele>
        <time>2026-04-12T11:25:03.000Z</time>
      </trkpt>
      <trkpt lat="51.422049" lon="-1.340106">
        <ele>124.068603</ele>
        <time>2026-04-12T11:25:30.000Z</time>
      </trkpt>
      <trkpt lat="51.421946" lon="-1.340032">
        <ele>124.076812</ele>
        <time>2026-04-12T11:25:36.000Z</time>
      </trkpt>
      <trkpt lat="51.421333" lon="-1.339758">
        <ele>124.27758</ele>
        <time>2026-04-12T11:26:24.000Z</time>
      </trkpt>
      <trkpt lat="51.420858" lon="-1.339398">
        <ele>124.443796</ele>
        <time>2026-04-12T11:27:01.000Z</time>
      </trkpt>
      <trkpt lat="51.420671" lon="-1.339324">
        <ele>124.50474</ele>
        <time>2026-04-12T11:27:15.000Z</time>
      </trkpt>
      <trkpt lat="51.420473" lon="-1.339193">
        <ele>124.572655</ele>
        <time>2026-04-12T11:27:31.000Z</time>
      </trkpt>
      <trkpt lat="51.420121" lon="-1.338874">
        <ele>123.333303</ele>
        <time>2026-04-12T11:28:00.000Z</time>
      </trkpt>
      <trkpt lat="51.420085" lon="-1.338817">
        <ele>122.950358</ele>
        <time>2026-04-12T11:28:04.000Z</time>
      </trkpt>
      <trkpt lat="51.420045" lon="-1.338808">
        <ele>122.644617</ele>
        <time>2026-04-12T11:28:07.000Z</time>
      </trkpt>
      <trkpt lat="51.419923" lon="-1.338657">
        <ele>121.478073</ele>
        <time>2026-04-12T11:28:18.000Z</time>
      </trkpt>
      <trkpt lat="51.419851" lon="-1.338499">
        <ele>120.554354</ele>
        <time>2026-04-12T11:28:27.000Z</time>
      </trkpt>
      <trkpt lat="51.41982" lon="-1.338214">
        <ele>119.163453</ele>
        <time>2026-04-12T11:28:41.000Z</time>
      </trkpt>
      <trkpt lat="51.419793" lon="-1.338114">
        <ele>118.649076</ele>
        <time>2026-04-12T11:28:47.000Z</time>
      </trkpt>
      <trkpt lat="51.419754" lon="-1.338096">
        <ele>118.307908</ele>
        <time>2026-04-12T11:29:31.000Z</time>
      </trkpt>
      <trkpt lat="51.41968" lon="-1.337945">
        <ele>117.398829</ele>
        <time>2026-04-12T11:29:42.000Z</time>
      </trkpt>
      <trkpt lat="51.419596" lon="-1.337856">
        <ele>116.636746</ele>
        <time>2026-04-12T11:29:48.000Z</time>
      </trkpt>
      <trkpt lat="51.419268" lon="-1.337624">
        <ele>113.908734</ele>
        <time>2026-04-12T11:30:14.000Z</time>
      </trkpt>
      <trkpt lat="51.419103" lon="-1.337458">
        <ele>112.432875</ele>
        <time>2026-04-12T11:30:28.000Z</time>
      </trkpt>
      <trkpt lat="51.419043" lon="-1.337313">
        <ele>111.611444</ele>
        <time>2026-04-12T11:30:36.000Z</time>
      </trkpt>
      <trkpt lat="51.418828" lon="-1.337073">
        <ele>109.406604</ele>
        <time>2026-04-12T11:30:55.000Z</time>
      </trkpt>
      <trkpt lat="51.418766" lon="-1.33695">
        <ele>108.542741</ele>
        <time>2026-04-12T11:31:02.000Z</time>
      </trkpt>
      <trkpt lat="51.418587" lon="-1.336286">
        <ele>104.586799</ele>
        <time>2026-04-12T11:31:32.000Z</time>
      </trkpt>
      <trkpt lat="51.41825" lon="-1.335201">
        <ele>97.965781</ele>
        <time>2026-04-12T11:32:25.000Z</time>
      </trkpt>
      <trkpt lat="51.417728" lon="-1.333694">
        <ele>92.137943</ele>
        <time>2026-04-12T11:33:38.000Z</time>
      </trkpt>
      <trkpt lat="51.417616" lon="-1.333218">
        <ele>90.834728</ele>
        <time>2026-04-12T11:34:01.000Z</time>
      </trkpt>
      <trkpt lat="51.417462" lon="-1.332935">
        <ele>89.875026</ele>
        <time>2026-04-12T11:34:18.000Z</time>
      </trkpt>
      <trkpt lat="51.417426" lon="-1.332827">
        <ele>89.561734</ele>
        <time>2026-04-12T11:34:30.000Z</time>
      </trkpt>
      <trkpt lat="51.417347" lon="-1.332691">
        <ele>89.08795</ele>
        <time>2026-04-12T11:34:38.000Z</time>
      </trkpt>
      <trkpt lat="51.417294" lon="-1.332643">
        <ele>88.83914</ele>
        <time>2026-04-12T11:34:43.000Z</time>
      </trkpt>
      <trkpt lat="51.416991" lon="-1.331881">
        <ele>87.006193</ele>
        <time>2026-04-12T11:35:21.000Z</time>
      </trkpt>
      <trkpt lat="51.416664" lon="-1.330992">
        <ele>85.268431</ele>
        <time>2026-04-12T11:36:06.000Z</time>
      </trkpt>
      <trkpt lat="51.416489" lon="-1.330453">
        <ele>84.244606</ele>
        <time>2026-04-12T11:36:33.000Z</time>
      </trkpt>
      <trkpt lat="51.416355" lon="-1.33012">
        <ele>83.568313</ele>
        <time>2026-04-12T11:36:52.000Z</time>
      </trkpt>
      <trkpt lat="51.416296" lon="-1.330025">
        <ele>83.342387</ele>
        <time>2026-04-12T11:37:06.000Z</time>
      </trkpt>
      <trkpt lat="51.41623" lon="-1.329995">
        <ele>83.1572</ele>
        <time>2026-04-12T11:37:11.000Z</time>
      </trkpt>
      <trkpt lat="51.416116" lon="-1.330046">
        <ele>83.37562</ele>
        <time>2026-04-12T11:37:19.000Z</time>
      </trkpt>
      <trkpt lat="51.415956" lon="-1.330225">
        <ele>84.052786</ele>
        <time>2026-04-12T11:37:32.000Z</time>
      </trkpt>
      <trkpt lat="51.415859" lon="-1.330157">
        <ele>84.421261</ele>
        <time>2026-04-12T11:37:40.000Z</time>
      </trkpt>
      <trkpt lat="51.41581" lon="-1.330004">
        <ele>84.792177</ele>
        <time>2026-04-12T11:37:47.000Z</time>
      </trkpt>
      <trkpt lat="51.415562" lon="-1.328406">
        <ele>88.359204</ele>
        <time>2026-04-12T11:38:59.000Z</time>
      </trkpt>
      <trkpt lat="51.415569" lon="-1.328186">
        <ele>88.835784</ele>
        <time>2026-04-12T11:39:09.000Z</time>
      </trkpt>
      <trkpt lat="51.415548" lon="-1.32805">
        <ele>89.137926</ele>
        <time>2026-04-12T11:39:15.000Z</time>
      </trkpt>
      <trkpt lat="51.415355" lon="-1.327266">
        <ele>88.387714</ele>
        <time>2026-04-12T11:39:50.000Z</time>
      </trkpt>
      <trkpt lat="51.415292" lon="-1.327079">
        <ele>88.138388</ele>
        <time>2026-04-12T11:40:00.000Z</time>
      </trkpt>
      <trkpt lat="51.415182" lon="-1.326481">
        <ele>87.406988</ele>
        <time>2026-04-12T11:40:29.000Z</time>
      </trkpt>
      <trkpt lat="51.415111" lon="-1.326385">
        <ele>87.232297</ele>
        <time>2026-04-12T11:40:34.000Z</time>
      </trkpt>
      <trkpt lat="51.415038" lon="-1.326344">
        <ele>87.086809</ele>
        <time>2026-04-12T11:40:39.000Z</time>
      </trkpt>
      <trkpt lat="51.414989" lon="-1.326199">
        <ele>86.893347</ele>
        <time>2026-04-12T11:40:46.000Z</time>
      </trkpt>
      <trkpt lat="51.414966" lon="-1.326016">
        <ele>86.674356</ele>
        <time>2026-04-12T11:40:54.000Z</time>
      </trkpt>
      <trkpt lat="51.414784" lon="-1.325125">
        <ele>85.197363</ele>
        <time>2026-04-12T11:41:33.000Z</time>
      </trkpt>
      <trkpt lat="51.414759" lon="-1.325013">
        <ele>84.901234</ele>
        <time>2026-04-12T11:41:38.000Z</time>
      </trkpt>
      <trkpt lat="51.414661" lon="-1.324688">
        <ele>83.98785</ele>
        <time>2026-04-12T11:41:54.000Z</time>
      </trkpt>
      <trkpt lat="51.414626" lon="-1.324363">
        <ele>83.164837</ele>
        <time>2026-04-12T11:42:10.000Z</time>
      </trkpt>
      <trkpt lat="51.414527" lon="-1.324052">
        <ele>82.293919</ele>
        <time>2026-04-12T11:42:24.000Z</time>
      </trkpt>
      <trkpt lat="51.414483" lon="-1.324001">
        <ele>82.077211</ele>
        <time>2026-04-12T11:42:27.000Z</time>
      </trkpt>
      <trkpt lat="51.4144" lon="-1.323979">
        <ele>81.741425</ele>
        <time>2026-04-12T11:42:33.000Z</time>
      </trkpt>
      <trkpt lat="51.41372" lon="-1.324096">
        <ele>79.003495</ele>
        <time>2026-04-12T11:43:18.000Z</time>
      </trkpt>
      <trkpt lat="51.413475" lon="-1.323848">
        <ele>78.398162</ele>
        <time>2026-04-12T11:43:38.000Z</time>
      </trkpt>
      <trkpt lat="51.413348" lon="-1.323833">
        <ele>78.207133</ele>
        <time>2026-04-12T11:43:47.000Z</time>
      </trkpt>
      <trkpt lat="51.413059" lon="-1.323882">
        <ele>77.770254</ele>
        <time>2026-04-12T11:44:08.000Z</time>
      </trkpt>
      <trkpt lat="51.412984" lon="-1.323802">
        <ele>77.634715</ele>
        <time>2026-04-12T11:44:14.000Z</time>
      </trkpt>
      <trkpt lat="51.412914" lon="-1.323653">
        <ele>77.460185</ele>
        <time>2026-04-12T11:44:22.000Z</time>
      </trkpt>
      <trkpt lat="51.412847" lon="-1.322534">
        <ele>76.406945</ele>
        <time>2026-04-12T11:45:12.000Z</time>
      </trkpt>
      <trkpt lat="51.412691" lon="-1.322267">
        <ele>76.064328</ele>
        <time>2026-04-12T11:45:28.000Z</time>
      </trkpt>
      <trkpt lat="51.412575" lon="-1.322142">
        <ele>76.012472</ele>
        <time>2026-04-12T11:45:37.000Z</time>
      </trkpt>
      <trkpt lat="51.412444" lon="-1.32211">
        <ele>75.99015</ele>
        <time>2026-04-12T11:45:46.000Z</time>
      </trkpt>
      <trkpt lat="51.411893" lon="-1.322081">
        <ele>75.897193</ele>
        <time>2026-04-12T11:46:24.000Z</time>
      </trkpt>
      <trkpt lat="51.411489" lon="-1.321793">
        <ele>75.822636</ele>
        <time>2026-04-12T11:46:54.000Z</time>
      </trkpt>
      <trkpt lat="51.411504" lon="-1.321043">
        <ele>75.743472</ele>
        <time>2026-04-12T11:47:28.000Z</time>
      </trkpt>
      <trkpt lat="51.411664" lon="-1.320256">
        <ele>76.220774</ele>
        <time>2026-04-12T11:47:59.000Z</time>
      </trkpt>
      <trkpt lat="51.411324" lon="-1.319891">
        <ele>76.68693</ele>
        <time>2026-04-12T11:48:30.000Z</time>
      </trkpt>
      <trkpt lat="51.410989" lon="-1.319641">
        <ele>77.107045</ele>
        <time>2026-04-12T11:48:56.000Z</time>
      </trkpt>
      <trkpt lat="51.410886" lon="-1.319501">
        <ele>77.260261</ele>
        <time>2026-04-12T11:49:06.000Z</time>
      </trkpt>
      <trkpt lat="51.410821" lon="-1.319246">
        <ele>77.455216</ele>
        <time>2026-04-12T11:49:18.000Z</time>
      </trkpt>
      <trkpt lat="51.410784" lon="-1.318925">
        <ele>77.687815</ele>
        <time>2026-04-12T11:49:33.000Z</time>
      </trkpt>
      <trkpt lat="51.410657" lon="-1.318248">
        <ele>78.267155</ele>
        <time>2026-04-12T11:50:05.000Z</time>
      </trkpt>
      <trkpt lat="51.410641" lon="-1.317893">
        <ele>78.566537</ele>
        <time>2026-04-12T11:50:21.000Z</time>
      </trkpt>
      <trkpt lat="51.410517" lon="-1.317561">
        <ele>78.892041</ele>
        <time>2026-04-12T11:50:36.000Z</time>
      </trkpt>
      <trkpt lat="51.4105" lon="-1.317363">
        <ele>79.060488</ele>
        <time>2026-04-12T11:50:47.000Z</time>
      </trkpt>
      <trkpt lat="51.410628" lon="-1.317332">
        <ele>79.23538</ele>
        <time>2026-04-12T11:50:59.000Z</time>
      </trkpt>
      <trkpt lat="51.410816" lon="-1.31741">
        <ele>79.496818</ele>
        <time>2026-04-12T11:51:15.000Z</time>
      </trkpt>
      <trkpt lat="51.410891" lon="-1.317478">
        <ele>79.612926</ele>
        <time>2026-04-12T11:51:22.000Z</time>
      </trkpt>
      <trkpt lat="51.411169" lon="-1.317837">
        <ele>80.094476</ele>
        <time>2026-04-12T11:51:48.000Z</time>
      </trkpt>
      <trkpt lat="51.411251" lon="-1.317866">
        <ele>80.175065</ele>
        <time>2026-04-12T11:51:54.000Z</time>
      </trkpt>
      <trkpt lat="51.411348" lon="-1.317815">
        <ele>80.036273</ele>
        <time>2026-04-12T11:52:02.000Z</time>
      </trkpt>
      <trkpt lat="51.411438" lon="-1.317644">
        <ele>79.846533</ele>
        <time>2026-04-12T11:52:10.000Z</time>
      </trkpt>
      <trkpt lat="51.411421" lon="-1.317428">
        <ele>79.661874</ele>
        <time>2026-04-12T11:52:20.000Z</time>
      </trkpt>
      <trkpt lat="51.411436" lon="-1.316991">
        <ele>79.289892</ele>
        <time>2026-04-12T11:52:37.000Z</time>
      </trkpt>
      <trkpt lat="51.411266" lon="-1.31635">
        <ele>78.698047</ele>
        <time>2026-04-12T11:53:06.000Z</time>
      </trkpt>
      <trkpt lat="51.41117" lon="-1.316151">
        <ele>78.484706</ele>
        <time>2026-04-12T11:53:16.000Z</time>
      </trkpt>
      <trkpt lat="51.411039" lon="-1.31602">
        <ele>78.273862</ele>
        <time>2026-04-12T11:53:26.000Z</time>
      </trkpt>
      <trkpt lat="51.410947" lon="-1.315845">
        <ele>78.079485</ele>
        <time>2026-04-12T11:53:36.000Z</time>
      </trkpt>
      <trkpt lat="51.410776" lon="-1.315598">
        <ele>77.766466</ele>
        <time>2026-04-12T11:53:52.000Z</time>
      </trkpt>
      <trkpt lat="51.410369" lon="-1.314906">
        <ele>76.534432</ele>
        <time>2026-04-12T11:54:32.000Z</time>
      </trkpt>
      <trkpt lat="51.409959" lon="-1.314311">
        <ele>75.378304</ele>
        <time>2026-04-12T11:55:11.000Z</time>
      </trkpt>
      <trkpt lat="51.409847" lon="-1.314217">
        <ele>75.114113</ele>
        <time>2026-04-12T11:55:20.000Z</time>
      </trkpt>
      <trkpt lat="51.409725" lon="-1.314216">
        <ele>74.858891</ele>
        <time>2026-04-12T11:55:28.000Z</time>
      </trkpt>
      <trkpt lat="51.409078" lon="-1.314562">
        <ele>74.113258</ele>
        <time>2026-04-12T11:56:15.000Z</time>
      </trkpt>
      <trkpt lat="51.408761" lon="-1.314677">
        <ele>74.267986</ele>
        <time>2026-04-12T11:56:37.000Z</time>
      </trkpt>
      <trkpt lat="51.408474" lon="-1.314734">
        <ele>74.405642</ele>
        <time>2026-04-12T11:56:56.000Z</time>
      </trkpt>
      <trkpt lat="51.408361" lon="-1.314793">
        <ele>74.46232</ele>
        <time>2026-04-12T11:57:07.000Z</time>
      </trkpt>
      <trkpt lat="51.408305" lon="-1.314698">
        <ele>74.501994</ele>
        <time>2026-04-12T11:57:14.000Z</time>
      </trkpt>
      <trkpt lat="51.408213" lon="-1.314726">
        <ele>74.546527</ele>
        <time>2026-04-12T11:57:21.000Z</time>
      </trkpt>
      <trkpt lat="51.407865" lon="-1.314982">
        <ele>74.729192</ele>
        <time>2026-04-12T11:57:46.000Z</time>
      </trkpt>
      <trkpt lat="51.407576" lon="-1.315424">
        <ele>74.842436</ele>
        <time>2026-04-12T11:58:14.000Z</time>
      </trkpt>
      <trkpt lat="51.407046" lon="-1.316465">
        <ele>74.842436</ele>
        <time>2026-04-12T11:59:15.000Z</time>
      </trkpt>
      <trkpt lat="51.407021" lon="-1.316468">
        <ele>74.842436</ele>
        <time>2026-04-12T11:59:23.000Z</time>
      </trkpt>
      <trkpt lat="51.407015" lon="-1.316418">
        <ele>74.842436</ele>
        <time>2026-04-12T11:59:33.000Z</time>
      </trkpt>
      <trkpt lat="51.407002" lon="-1.316513">
        <ele>74.842436</ele>
        <time>2026-04-12T11:59:47.000Z</time>
      </trkpt>
      <trkpt lat="51.407004" lon="-1.31649">
        <ele>74.842436</ele>
        <time>2026-04-12T11:59:52.000Z</time>
      </trkpt>
      <trkpt lat="51.406969" lon="-1.316501">
        <ele>74.842436</ele>
        <time>2026-04-12T12:00:00.000Z</time>
      </trkpt>
      <trkpt lat="51.406953" lon="-1.316542">
        <ele>74.842436</ele>
        <time>2026-04-12T12:00:13.000Z</time>
      </trkpt>
      <trkpt lat="51.406961" lon="-1.316504">
        <ele>74.842436</ele>
        <time>2026-04-12T12:00:17.000Z</time>
      </trkpt>
      <trkpt lat="51.406934" lon="-1.316449">
        <ele>74.842436</ele>
        <time>2026-04-12T12:00:26.000Z</time>
      </trkpt>
      <trkpt lat="51.406924" lon="-1.316469">
        <ele>74.842436</ele>
        <time>2026-04-12T12:00:34.000Z</time>
      </trkpt>
      <trkpt lat="51.406971" lon="-1.316395">
        <ele>74.842436</ele>
        <time>2026-04-12T12:00:48.000Z</time>
      </trkpt>
    </trkseg>
  </trk>
</gpx>
