<?xml version="1.0" encoding="UTF-8"?>
<gpx version="1.1" creator="WalkingWestBerks" xmlns="http://www.topografix.com/GPX/1/1">
  <trk>
    <name>Snelsmore Common Loop</name>
    <trkseg>
      <trkpt lat="51.4372" lon="-1.3226"><ele>115</ele></trkpt>
      <trkpt lat="51.4381" lon="-1.3241"><ele>118</ele></trkpt>
      <trkpt lat="51.4395" lon="-1.3238"><ele>121</ele></trkpt>
      <trkpt lat="51.4402" lon="-1.3215"><ele>119</ele></trkpt>
      <trkpt lat="51.4394" lon="-1.3197"><ele>114</ele></trkpt>
      <trkpt lat="51.4380" lon="-1.3199"><ele>112</ele></trkpt>
      <trkpt lat="51.4372" lon="-1.3213"><ele>113</ele></trkpt>
      <trkpt lat="51.4372" lon="-1.3226"><ele>115</ele></trkpt>
    </trkseg>
  </trk>
</gpx>
